<?xml version="1.0" encoding="UTF-8"?>
<kml xmlns="http://www.opengis.net/kml/2.2">
  <Document>
    <name>Ilôtage Montchat</name>
    <description/>
    <Style id="poly-000000-1200-77-nodesc-normal">
      <LineStyle>
        <color>ff000000</color>
        <width>1.2</width>
      </LineStyle>
      <PolyStyle>
        <color>4d000000</color>
        <fill>1</fill>
        <outline>1</outline>
      </PolyStyle>
      <BalloonStyle>
        <text><![CDATA[<h3>$[name]</h3>]]></text>
      </BalloonStyle>
    </Style>
    <Style id="poly-000000-1200-77-nodesc-highlight">
      <LineStyle>
        <color>ff000000</color>
        <width>1.8</width>
      </LineStyle>
      <PolyStyle>
        <color>4d000000</color>
        <fill>1</fill>
        <outline>1</outline>
      </PolyStyle>
      <BalloonStyle>
        <text><![CDATA[<h3>$[name]</h3>]]></text>
      </BalloonStyle>
    </Style>
    <StyleMap id="poly-000000-1200-77-nodesc">
      <Pair>
        <key>normal</key>
        <styleUrl>#poly-000000-1200-77-nodesc-normal</styleUrl>
      </Pair>
      <Pair>
        <key>highlight</key>
        <styleUrl>#poly-000000-1200-77-nodesc-highlight</styleUrl>
      </Pair>
    </StyleMap>
    <Folder>
      <name>Couche sans titre</name>
      <Placemark>
        <name>101</name>
        <styleUrl>#poly-000000-1200-77-nodesc</styleUrl>
        <Polygon>
          <outerBoundaryIs>
            <LinearRing>
              <tessellate>1</tessellate>
              <coordinates>
                4.8698309,45.7528267,0
                4.8712847,45.7526395,0
                4.8718157,45.752589,0
                4.8725882,45.7525534,0
                4.8712069,45.7533919,0
                4.8704545,45.7530962,0
                4.8698309,45.7528267,0
              </coordinates>
            </LinearRing>
          </outerBoundaryIs>
        </Polygon>
      </Placemark>
      <Placemark>
        <name>102</name>
        <styleUrl>#poly-000000-1200-77-nodesc</styleUrl>
        <Polygon>
          <outerBoundaryIs>
            <LinearRing>
              <tessellate>1</tessellate>
              <coordinates>
                4.8712686,45.7534106,0
                4.8726901,45.7525347,0
                4.8752528,45.7526584,0
                4.8751616,45.7528156,0
                4.8740378,45.7528904,0
                4.874066,45.7530682,0
                4.8740244,45.7532161,0
                4.8732063,45.754208,0
                4.8724969,45.7539422,0
                4.8725042,45.7539086,0
                4.8719178,45.7536784,0
                4.8717936,45.75364,0
                4.8716457,45.7535609,0
                4.8715353,45.7535193,0
                4.8712686,45.7534106,0
              </coordinates>
            </LinearRing>
          </outerBoundaryIs>
        </Polygon>
      </Placemark>
      <Placemark>
        <name>103</name>
        <styleUrl>#poly-000000-1200-77-nodesc</styleUrl>
        <Polygon>
          <outerBoundaryIs>
            <LinearRing>
              <tessellate>1</tessellate>
              <coordinates>
                4.87326,45.7542342,0
                4.87372,45.7536933,0
                4.8741076,45.7532367,0
                4.8741411,45.7531759,0
                4.8741364,45.75305,0
                4.8741129,45.7529335,0
                4.8751616,45.7528605,0
                4.8752528,45.7526584,0
                4.8756916,45.7526808,0
                4.875654,45.7532498,0
                4.8756017,45.7538028,0
                4.875603,45.7548349,0
                4.8754059,45.7548321,0
                4.8750559,45.7547675,0
                4.8742888,45.7545954,0
                4.8738843,45.7544747,0
                4.87326,45.7542342,0
              </coordinates>
            </LinearRing>
          </outerBoundaryIs>
        </Polygon>
      </Placemark>
      <Placemark>
        <name>104</name>
        <styleUrl>#poly-000000-1200-77-nodesc</styleUrl>
        <Polygon>
          <outerBoundaryIs>
            <LinearRing>
              <tessellate>1</tessellate>
              <coordinates>
                4.8756889,45.7548461,0
                4.8756916,45.7526808,0
                4.87681,45.7527482,0
                4.8768945,45.7532123,0
                4.8770031,45.7538037,0
                4.8772043,45.7548817,0
                4.8763541,45.7548649,0
                4.8763608,45.7548976,0
                4.8760476,45.7548803,0
                4.8760439,45.7548567,0
                4.8756889,45.7548461,0
              </coordinates>
            </LinearRing>
          </outerBoundaryIs>
        </Polygon>
      </Placemark>
      <Placemark>
        <name>105</name>
        <styleUrl>#poly-000000-1200-77-nodesc</styleUrl>
        <Polygon>
          <outerBoundaryIs>
            <LinearRing>
              <tessellate>1</tessellate>
              <coordinates>
                4.8773277,45.7549304,0
                4.8769603,45.7528277,0
                4.8778722,45.7529025,0
                4.8782906,45.7549237,0
                4.8773277,45.7549304,0
              </coordinates>
            </LinearRing>
          </outerBoundaryIs>
        </Polygon>
      </Placemark>
      <Placemark>
        <name>106</name>
        <styleUrl>#poly-000000-1200-77-nodesc</styleUrl>
        <Polygon>
          <outerBoundaryIs>
            <LinearRing>
              <tessellate>1</tessellate>
              <coordinates>
                4.878355,45.7549087,0
                4.8781525,45.7538813,0
                4.8779815,45.7530476,0
                4.8779366,45.7528632,0
                4.8787117,45.7528426,0
                4.8787278,45.7531252,0
                4.879098,45.7548208,0
                4.8786232,45.754891,0
                4.878355,45.7549087,0
              </coordinates>
            </LinearRing>
          </outerBoundaryIs>
        </Polygon>
      </Placemark>
      <Placemark>
        <name>107</name>
        <styleUrl>#poly-000000-1200-77-nodesc</styleUrl>
        <Polygon>
          <outerBoundaryIs>
            <LinearRing>
              <tessellate>1</tessellate>
              <coordinates>
                4.879165,45.7548077,0
                4.8789598,45.7537933,0
                4.8788519,45.7533049,0
                4.8787117,45.7528426,0
                4.88005,45.7529127,0
                4.8801036,45.7532459,0
                4.8803557,45.7546588,0
                4.8794264,45.7547763,0
                4.879165,45.7548077,0
              </coordinates>
            </LinearRing>
          </outerBoundaryIs>
        </Polygon>
      </Placemark>
      <Placemark>
        <name>108</name>
        <styleUrl>#poly-000000-1200-77-nodesc</styleUrl>
        <Polygon>
          <outerBoundaryIs>
            <LinearRing>
              <tessellate>1</tessellate>
              <coordinates>
                4.8804362,45.7546439,0
                4.8802941,45.7537923,0
                4.8801694,45.7531364,0
                4.8801037,45.7529146,0
                4.8809163,45.7529988,0
                4.8812784,45.7545354,0
                4.8806561,45.7546121,0
                4.8804362,45.7546439,0
              </coordinates>
            </LinearRing>
          </outerBoundaryIs>
        </Polygon>
      </Placemark>
      <Placemark>
        <name>109</name>
        <styleUrl>#poly-000000-1200-77-nodesc</styleUrl>
        <Polygon>
          <outerBoundaryIs>
            <LinearRing>
              <tessellate>1</tessellate>
              <coordinates>
                4.8813589,45.754526,0
                4.8810397,45.7532169,0
                4.8809914,45.7529969,0
                4.8814715,45.7530419,0
                4.8825337,45.7533563,0
                4.8830862,45.7535533,0
                4.8836709,45.7538438,0
                4.8837728,45.7539608,0
                4.8838373,45.7542471,0
                4.8834028,45.7542864,0
                4.8826678,45.754351,0
                4.8817988,45.7544694,0
                4.8813589,45.754526,0
              </coordinates>
            </LinearRing>
          </outerBoundaryIs>
        </Polygon>
      </Placemark>
      <Placemark>
        <name>110</name>
        <styleUrl>#poly-000000-1200-77-nodesc</styleUrl>
        <Polygon>
          <outerBoundaryIs>
            <LinearRing>
              <tessellate>1</tessellate>
              <coordinates>
                4.8839285,45.7542396,0
                4.8836027,45.7527624,0
                4.883293,45.7513227,0
                4.8845537,45.7510718,0
                4.8849211,45.7520657,0
                4.8854267,45.7534235,0
                4.8856158,45.7540626,0
                4.8847587,45.7541624,0
                4.8844133,45.7541692,0
                4.884128,45.754225,0
                4.8839285,45.7542396,0
              </coordinates>
            </LinearRing>
          </outerBoundaryIs>
        </Polygon>
      </Placemark>
      <Placemark>
        <name>112</name>
        <styleUrl>#poly-000000-1200-77-nodesc</styleUrl>
        <Polygon>
          <outerBoundaryIs>
            <LinearRing>
              <tessellate>1</tessellate>
              <coordinates>
                4.8837544,45.7537407,0
                4.8829604,45.7533963,0
                4.8831187,45.7532316,0
                4.8826761,45.751712,0
                4.8798625,45.7521883,0
                4.8799832,45.7528368,0
                4.8784543,45.7526814,0
                4.8779662,45.7516221,0
                4.8800005,45.75122,0
                4.8829414,45.7506756,0
                4.8832018,45.7513002,0
                4.8833157,45.7517219,0
                4.8834109,45.7521511,0
                4.8837544,45.7537407,0
              </coordinates>
            </LinearRing>
          </outerBoundaryIs>
        </Polygon>
      </Placemark>
      <Placemark>
        <name>113</name>
        <styleUrl>#poly-000000-1200-77-nodesc</styleUrl>
        <Polygon>
          <outerBoundaryIs>
            <LinearRing>
              <tessellate>1</tessellate>
              <coordinates>
                4.8769253,45.7526771,0
                4.876609,45.7518729,0
                4.8778911,45.7516408,0
                4.8784596,45.7527637,0
                4.8769253,45.7526771,0
              </coordinates>
            </LinearRing>
          </outerBoundaryIs>
        </Polygon>
      </Placemark>
      <Placemark>
        <name>111</name>
        <styleUrl>#poly-000000-1200-77-nodesc</styleUrl>
        <Polygon>
          <outerBoundaryIs>
            <LinearRing>
              <tessellate>1</tessellate>
              <coordinates>
                4.8832687,45.7512689,0
                4.8831305,45.7509264,0
                4.8830111,45.7506625,0
                4.8843147,45.7503837,0
                4.884543,45.7510213,0
                4.8832687,45.7512689,0
              </coordinates>
            </LinearRing>
          </outerBoundaryIs>
        </Polygon>
      </Placemark>
      <Placemark>
        <name>114</name>
        <styleUrl>#poly-000000-1200-77-nodesc</styleUrl>
        <Polygon>
          <outerBoundaryIs>
            <LinearRing>
              <tessellate>1</tessellate>
              <coordinates>
                4.8698388,45.752755,0
                4.8727517,45.7513176,0
                4.8735671,45.7525192,0
                4.8728697,45.7524892,0
                4.872108,45.7525004,0
                4.871715,45.7525267,0
                4.8709787,45.7526053,0
                4.8698388,45.752755,0
              </coordinates>
            </LinearRing>
          </outerBoundaryIs>
        </Polygon>
      </Placemark>
      <Placemark>
        <name>115</name>
        <styleUrl>#poly-000000-1200-77-nodesc</styleUrl>
        <Polygon>
          <outerBoundaryIs>
            <LinearRing>
              <tessellate>1</tessellate>
              <coordinates>
                4.8746883,45.7521636,0
                4.8743503,45.7514243,0
                4.8739909,45.7507075,0
                4.8756914,45.7498578,0
                4.8764749,45.7518467,0
                4.8746883,45.7521636,0
              </coordinates>
            </LinearRing>
          </outerBoundaryIs>
        </Polygon>
      </Placemark>
      <Placemark>
        <name>116</name>
        <styleUrl>#poly-000000-1200-77-nodesc</styleUrl>
        <Polygon>
          <outerBoundaryIs>
            <LinearRing>
              <tessellate>1</tessellate>
              <coordinates>
                4.8767804,45.7526688,0
                4.8736261,45.7525304,0
                4.8728107,45.751284,0
                4.8739158,45.7507524,0
                4.8746347,45.7522234,0
                4.87648,45.7519053,0
                4.8767804,45.7526688,0
              </coordinates>
            </LinearRing>
          </outerBoundaryIs>
        </Polygon>
      </Placemark>
      <Placemark>
        <name>117</name>
        <styleUrl>#poly-000000-1200-77-nodesc</styleUrl>
        <Polygon>
          <outerBoundaryIs>
            <LinearRing>
              <tessellate>1</tessellate>
              <coordinates>
                4.8765974,45.7518103,0
                4.8757933,45.7498166,0
                4.8766939,45.7494185,0
                4.8778635,45.7515783,0
                4.8765974,45.7518103,0
              </coordinates>
            </LinearRing>
          </outerBoundaryIs>
        </Polygon>
      </Placemark>
      <Placemark>
        <name>118</name>
        <styleUrl>#poly-000000-1200-77-nodesc</styleUrl>
        <Polygon>
          <outerBoundaryIs>
            <LinearRing>
              <tessellate>1</tessellate>
              <coordinates>
                4.87796,45.751567,0
                4.8777096,45.7511011,0
                4.8803668,45.7504481,0
                4.8801879,45.7500105,0
                4.8800553,45.7500411,0
                4.8798654,45.749698,0
                4.8796357,45.7498578,0
                4.8788331,45.7500501,0
                4.8787941,45.750008,0
                4.8772894,45.7503131,0
                4.876769,45.7493885,0
                4.8779733,45.7489093,0
                4.8785554,45.7487147,0
                4.8791508,45.7496243,0
                4.8793574,45.7496066,0
                4.8796497,45.7495139,0
                4.8801862,45.7493698,0
                4.880567,45.7500492,0
                4.8807897,45.7504338,0
                4.8809171,45.7506392,0
                4.8809975,45.7507689,0
                4.8811464,45.7509569,0
                4.87796,45.751567,0
              </coordinates>
            </LinearRing>
          </outerBoundaryIs>
        </Polygon>
      </Placemark>
      <Placemark>
        <name>118</name>
        <styleUrl>#poly-000000-1200-77-nodesc</styleUrl>
        <Polygon>
          <outerBoundaryIs>
            <LinearRing>
              <tessellate>1</tessellate>
              <coordinates>
                4.8791804,45.749557,0
                4.8789309,45.7491396,0
                4.8786412,45.7486885,0
                4.8796367,45.7484021,0
                4.8801701,45.7493398,0
                4.8792514,45.7495607,0
                4.8791804,45.749557,0
              </coordinates>
            </LinearRing>
          </outerBoundaryIs>
        </Polygon>
      </Placemark>
      <Placemark>
        <name>119</name>
        <styleUrl>#poly-000000-1200-77-nodesc</styleUrl>
        <Polygon>
          <outerBoundaryIs>
            <LinearRing>
              <tessellate>1</tessellate>
              <coordinates>
                4.881239,45.7509438,0
                4.881182,45.7508989,0
                4.8810552,45.750737,0
                4.8802546,45.7493511,0
                4.8819965,45.7488418,0
                4.8821057,45.7487912,0
                4.8821854,45.7488174,0
                4.8825674,45.7497325,0
                4.882749,45.7501994,0
                4.8829206,45.7506237,0
                4.881239,45.7509438,0
              </coordinates>
            </LinearRing>
          </outerBoundaryIs>
        </Polygon>
      </Placemark>
      <Placemark>
        <name>120</name>
        <styleUrl>#poly-000000-1200-77-nodesc</styleUrl>
        <Polygon>
          <outerBoundaryIs>
            <LinearRing>
              <tessellate>1</tessellate>
              <coordinates>
                4.8802327,45.7493087,0
                4.8797065,45.748374,0
                4.8802392,45.7482078,0
                4.8803454,45.7482175,0
                4.8820244,45.7487696,0
                4.8802327,45.7493087,0
              </coordinates>
            </LinearRing>
          </outerBoundaryIs>
        </Polygon>
      </Placemark>
      <Placemark>
        <name>121</name>
        <styleUrl>#poly-000000-1200-77-nodesc</styleUrl>
        <Polygon>
          <outerBoundaryIs>
            <LinearRing>
              <tessellate>1</tessellate>
              <coordinates>
                4.8829897,45.7506064,0
                4.8826906,45.7498646,0
                4.8840384,45.74961,0
                4.8842718,45.750256,0
                4.8842973,45.7503189,0
                4.8842932,45.75035,0
                4.8839841,45.7504043,0
                4.8839728,45.7504025,0
                4.8831024,45.7505861,0
                4.8829897,45.7506064,0
              </coordinates>
            </LinearRing>
          </outerBoundaryIs>
        </Polygon>
      </Placemark>
      <Placemark>
        <name>122</name>
        <styleUrl>#poly-000000-1200-77-nodesc</styleUrl>
        <Polygon>
          <outerBoundaryIs>
            <LinearRing>
              <tessellate>1</tessellate>
              <coordinates>
                4.8826719,45.7498122,0
                4.8822751,45.7488731,0
                4.8822806,45.7488492,0
                4.883863,45.7493671,0
                4.8839701,45.7494209,0
                4.8840103,45.7495707,0
                4.8826719,45.7498122,0
              </coordinates>
            </LinearRing>
          </outerBoundaryIs>
        </Polygon>
      </Placemark>
      <Placemark>
        <name>123</name>
        <styleUrl>#poly-000000-1200-77-nodesc</styleUrl>
        <Polygon>
          <outerBoundaryIs>
            <LinearRing>
              <tessellate>1</tessellate>
              <coordinates>
                4.8856239,45.7536284,0
                4.885228,45.7525761,0
                4.8856424,45.7526622,0
                4.8863251,45.7528306,0
                4.8859147,45.7535886,0
                4.8858717,45.7536054,0
                4.8857349,45.7536185,0
                4.8856239,45.7536284,0
              </coordinates>
            </LinearRing>
          </outerBoundaryIs>
        </Polygon>
      </Placemark>
      <Placemark>
        <name>124</name>
        <styleUrl>#poly-000000-1200-77-nodesc</styleUrl>
        <Polygon>
          <outerBoundaryIs>
            <LinearRing>
              <tessellate>1</tessellate>
              <coordinates>
                4.8852078,45.7525273,0
                4.8849503,45.751775,0
                4.8866696,45.7521941,0
                4.8863558,45.7527819,0
                4.8854465,45.7525629,0
                4.8852078,45.7525273,0
              </coordinates>
            </LinearRing>
          </outerBoundaryIs>
        </Polygon>
      </Placemark>
      <Placemark>
        <name>125</name>
        <styleUrl>#poly-000000-1200-77-nodesc</styleUrl>
        <Polygon>
          <outerBoundaryIs>
            <LinearRing>
              <tessellate>1</tessellate>
              <coordinates>
                4.8849292,45.75171,0
                4.884685,45.7510512,0
                4.8869167,45.7517512,0
                4.8866884,45.7521511,0
                4.8849292,45.75171,0
              </coordinates>
            </LinearRing>
          </outerBoundaryIs>
        </Polygon>
      </Placemark>
      <Placemark>
        <name>126</name>
        <styleUrl>#poly-000000-1200-77-nodesc</styleUrl>
        <Polygon>
          <outerBoundaryIs>
            <LinearRing>
              <tessellate>1</tessellate>
              <coordinates>
                4.8846663,45.7509988,0
                4.8844383,45.7503625,0
                4.8845938,45.7503438,0
                4.8848299,45.750413,0
                4.8852805,45.750572,0
                4.8849667,45.7510756,0
                4.8847669,45.7510147,0
                4.8846663,45.7509988,0
              </coordinates>
            </LinearRing>
          </outerBoundaryIs>
        </Polygon>
      </Placemark>
      <Placemark>
        <name>127</name>
        <styleUrl>#poly-000000-1200-77-nodesc</styleUrl>
        <Polygon>
          <outerBoundaryIs>
            <LinearRing>
              <tessellate>1</tessellate>
              <coordinates>
                4.8850338,45.7511005,0
                4.8853502,45.7505952,0
                4.8856037,45.7506916,0
                4.8872197,45.7511885,0
                4.8869462,45.7517026,0
                4.8850338,45.7511005,0
              </coordinates>
            </LinearRing>
          </outerBoundaryIs>
        </Polygon>
      </Placemark>
      <Placemark>
        <name>128</name>
        <styleUrl>#poly-000000-1200-77-nodesc</styleUrl>
        <Polygon>
          <outerBoundaryIs>
            <LinearRing>
              <tessellate>1</tessellate>
              <coordinates>
                4.8844218,45.750312,0
                4.8840959,45.749438,0
                4.885673,45.7499573,0
                4.8853073,45.7505224,0
                4.8848404,45.7503592,0
                4.8845881,45.7502933,0
                4.8844218,45.750312,0
              </coordinates>
            </LinearRing>
          </outerBoundaryIs>
        </Polygon>
      </Placemark>
      <Placemark>
        <name>129</name>
        <styleUrl>#poly-000000-1200-77-nodesc</styleUrl>
        <Polygon>
          <outerBoundaryIs>
            <LinearRing>
              <tessellate>1</tessellate>
              <coordinates>
                4.8853797,45.7505515,0
                4.8857374,45.7499835,0
                4.887572,45.7505637,0
                4.8872653,45.7511399,0
                4.8853797,45.7505515,0
              </coordinates>
            </LinearRing>
          </outerBoundaryIs>
        </Polygon>
      </Placemark>
      <Placemark>
        <name>130</name>
        <styleUrl>#poly-000000-1200-77-nodesc</styleUrl>
        <Polygon>
          <outerBoundaryIs>
            <LinearRing>
              <tessellate>1</tessellate>
              <coordinates>
                4.8861426,45.7540059,0
                4.8860971,45.7538412,0
                4.8861266,45.7538365,0
                4.8860984,45.7537125,0
                4.8860253,45.7536187,0
                4.8864484,45.752868,0
                4.8878655,45.753215,0
                4.8876616,45.7535603,0
                4.8875704,45.7537896,0
                4.8875221,45.7538644,0
                4.8861426,45.7540059,0
              </coordinates>
            </LinearRing>
          </outerBoundaryIs>
        </Polygon>
      </Placemark>
      <Placemark>
        <name>131</name>
        <styleUrl>#poly-000000-1200-77-nodesc</styleUrl>
        <Polygon>
          <outerBoundaryIs>
            <LinearRing>
              <tessellate>1</tessellate>
              <coordinates>
                4.8881766,45.7537905,0
                4.8877246,45.7538378,0
                4.8876992,45.7538139,0
                4.8876241,45.7538186,0
                4.8877582,45.7535364,0
                4.8879393,45.7532356,0
                4.8894989,45.7536118,0
                4.8894815,45.7536268,0
                4.8892311,45.7536558,0
                4.889222,45.7536717,0
                4.8887865,45.753725,0
                4.8883139,45.7537658,0
                4.8881769,45.7537772,0
                4.8881766,45.7537905,0
              </coordinates>
            </LinearRing>
          </outerBoundaryIs>
        </Polygon>
      </Placemark>
      <Placemark>
        <name>132</name>
        <styleUrl>#poly-000000-1200-77-nodesc</styleUrl>
        <Polygon>
          <outerBoundaryIs>
            <LinearRing>
              <tessellate>1</tessellate>
              <coordinates>
                4.8895875,45.7536165,0
                4.8899094,45.7529811,0
                4.8912424,45.7533423,0
                4.8913256,45.7533937,0
                4.8912907,45.7534377,0
                4.8902983,45.7535594,0
                4.8895875,45.7536165,0
              </coordinates>
            </LinearRing>
          </outerBoundaryIs>
        </Polygon>
      </Placemark>
      <Placemark>
        <name>133</name>
        <styleUrl>#poly-000000-1200-77-nodesc</styleUrl>
        <Polygon>
          <outerBoundaryIs>
            <LinearRing>
              <tessellate>1</tessellate>
              <coordinates>
                4.8879674,45.7531832,0
                4.8883,45.7525936,0
                4.888992,45.7527668,0
                4.8898396,45.7529661,0
                4.8895311,45.753565,0
                4.8879674,45.7531832,0
              </coordinates>
            </LinearRing>
          </outerBoundaryIs>
        </Polygon>
      </Placemark>
      <Placemark>
        <name>134</name>
        <styleUrl>#poly-000000-1200-77-nodesc</styleUrl>
        <Polygon>
          <outerBoundaryIs>
            <LinearRing>
              <tessellate>1</tessellate>
              <coordinates>
                4.8864708,45.7528258,0
                4.886578,45.7525984,0
                4.8867926,45.7522175,0
                4.8882276,45.7525749,0
                4.8878896,45.7531664,0
                4.8864708,45.7528258,0
              </coordinates>
            </LinearRing>
          </outerBoundaryIs>
        </Polygon>
      </Placemark>
      <Placemark>
        <name>135</name>
        <styleUrl>#poly-000000-1200-77-nodesc</styleUrl>
        <Polygon>
          <outerBoundaryIs>
            <LinearRing>
              <tessellate>1</tessellate>
              <coordinates>
                4.8868168,45.7521725,0
                4.8877062,45.7506124,0
                4.8890714,45.7510473,0
                4.8882463,45.7525412,0
                4.8878963,45.752443,0
                4.8868168,45.7521725,0
              </coordinates>
            </LinearRing>
          </outerBoundaryIs>
        </Polygon>
      </Placemark>
      <Placemark>
        <name>136</name>
        <styleUrl>#poly-000000-1200-77-nodesc</styleUrl>
        <Polygon>
          <outerBoundaryIs>
            <LinearRing>
              <tessellate>1</tessellate>
              <coordinates>
                4.8883392,45.7525464,0
                4.8891384,45.7510679,0
                4.8898666,45.7513159,0
                4.8905547,45.7515451,0
                4.8898584,45.7529324,0
                4.8883392,45.7525464,0
              </coordinates>
            </LinearRing>
          </outerBoundaryIs>
        </Polygon>
      </Placemark>
      <Placemark>
        <name>137</name>
        <styleUrl>#poly-000000-1200-77-nodesc</styleUrl>
        <Polygon>
          <outerBoundaryIs>
            <LinearRing>
              <tessellate>1</tessellate>
              <coordinates>
                4.8899335,45.7529343,0
                4.8906298,45.7515657,0
                4.8916452,45.7519007,0
                4.8914924,45.7533231,0
                4.8913717,45.7533455,0
                4.8912778,45.7532969,0
                4.8907062,45.7531465,0
                4.8907041,45.7531332,0
                4.8903266,45.7530451,0
                4.8899335,45.7529343,0
              </coordinates>
            </LinearRing>
          </outerBoundaryIs>
        </Polygon>
      </Placemark>
      <Placemark>
        <name>138</name>
        <styleUrl>#poly-000000-1200-77-nodesc</styleUrl>
        <Polygon>
          <outerBoundaryIs>
            <LinearRing>
              <tessellate>1</tessellate>
              <coordinates>
                4.8915643,45.753331,0
                4.891723,45.7519269,0
                4.8930802,45.7523724,0
                4.891649,45.7533589,0
                4.8915643,45.753331,0
              </coordinates>
            </LinearRing>
          </outerBoundaryIs>
        </Polygon>
      </Placemark>
      <Placemark>
        <name>139</name>
        <styleUrl>#poly-000000-1200-77-nodesc</styleUrl>
        <Polygon>
          <outerBoundaryIs>
            <LinearRing>
              <tessellate>1</tessellate>
              <coordinates>
                4.8917059,45.7533964,0
                4.8931382,45.7524045,0
                4.8932159,45.7524101,0
                4.8932481,45.7524513,0
                4.8933205,45.752878,0
                4.8933822,45.7532504,0
                4.8923281,45.7533533,0
                4.8920398,45.7533889,0
                4.8919607,45.7534057,0
                4.8917059,45.7533964,0
              </coordinates>
            </LinearRing>
          </outerBoundaryIs>
        </Polygon>
      </Placemark>
      <Placemark>
        <name>140</name>
        <styleUrl>#poly-000000-1200-77-nodesc</styleUrl>
        <Polygon>
          <outerBoundaryIs>
            <LinearRing>
              <tessellate>1</tessellate>
              <coordinates>
                4.8934654,45.7532129,0
                4.8933782,45.7528181,0
                4.8933339,45.7524532,0
                4.8949982,45.7529912,0
                4.8950586,45.7530427,0
                4.8948414,45.7530689,0
                4.8948253,45.7531045,0
                4.8944156,45.7531325,0
                4.8944028,45.7531157,0
                4.8934654,45.7532129,0
              </coordinates>
            </LinearRing>
          </outerBoundaryIs>
        </Polygon>
      </Placemark>
      <Placemark>
        <name>141</name>
        <styleUrl>#poly-000000-1200-77-nodesc</styleUrl>
        <Polygon>
          <outerBoundaryIs>
            <LinearRing>
              <tessellate>1</tessellate>
              <coordinates>
                4.8953932,45.7530281,0
                4.8954517,45.7529438,0
                4.8954431,45.7528857,0
                4.8955003,45.7528753,0
                4.8955557,45.7527961,0
                4.895536,45.7527806,0
                4.8960355,45.7520989,0
                4.8977977,45.7527727,0
                4.8974826,45.7528148,0
                4.8966686,45.7529,0
                4.8954535,45.7530469,0
                4.8954508,45.7530258,0
                4.8953932,45.7530281,0
              </coordinates>
            </LinearRing>
          </outerBoundaryIs>
        </Polygon>
      </Placemark>
      <Placemark>
        <name>142</name>
        <styleUrl>#poly-000000-1200-77-nodesc</styleUrl>
        <Polygon>
          <outerBoundaryIs>
            <LinearRing>
              <tessellate>1</tessellate>
              <coordinates>
                4.8953784,45.7536504,0
                4.8952497,45.7531395,0
                4.8982484,45.7528307,0
                4.8983127,45.7529448,0
                4.8966739,45.7533977,0
                4.8961763,45.7534829,0
                4.8953784,45.7536504,0
              </coordinates>
            </LinearRing>
          </outerBoundaryIs>
        </Polygon>
      </Placemark>
      <Placemark>
        <name>143</name>
        <styleUrl>#poly-000000-1200-77-nodesc</styleUrl>
        <Polygon>
          <outerBoundaryIs>
            <LinearRing>
              <tessellate>1</tessellate>
              <coordinates>
                4.8936216,45.753978,0
                4.8934848,45.753321,0
                4.8951263,45.7531638,0
                4.8951893,45.7533187,0
                4.8951933,45.7534062,0
                4.8952496,45.7536748,0
                4.8939206,45.7539461,0
                4.8936216,45.753978,0
              </coordinates>
            </LinearRing>
          </outerBoundaryIs>
        </Polygon>
      </Placemark>
      <Placemark>
        <name>144</name>
        <styleUrl>#poly-000000-1200-77-nodesc</styleUrl>
        <Polygon>
          <outerBoundaryIs>
            <LinearRing>
              <tessellate>1</tessellate>
              <coordinates>
                4.8914961,45.7540977,0
                4.8914902,45.7540279,0
                4.8915407,45.7536306,0
                4.8916416,45.7536146,0
                4.8917254,45.7535414,0
                4.8918501,45.753526,0
                4.8918796,45.7534839,0
                4.893415,45.7533304,0
                4.8935518,45.753978,0
                4.8914961,45.7540977,0
              </coordinates>
            </LinearRing>
          </outerBoundaryIs>
        </Polygon>
      </Placemark>
      <Placemark>
        <name>145</name>
        <styleUrl>#poly-000000-1200-77-nodesc</styleUrl>
        <Polygon>
          <outerBoundaryIs>
            <LinearRing>
              <tessellate>1</tessellate>
              <coordinates>
                4.8896186,45.7541351,0
                4.8895526,45.7537484,0
                4.8903798,45.7536528,0
                4.8913223,45.7535572,0
                4.8914156,45.7536355,0
                4.8913673,45.7540902,0
                4.891138,45.7540565,0
                4.8904956,45.7540865,0
                4.8896186,45.7541351,0
              </coordinates>
            </LinearRing>
          </outerBoundaryIs>
        </Polygon>
      </Placemark>
      <Placemark>
        <name>146</name>
        <styleUrl>#poly-000000-1200-77-nodesc</styleUrl>
        <Polygon>
          <outerBoundaryIs>
            <LinearRing>
              <tessellate>1</tessellate>
              <coordinates>
                4.8895432,45.7541156,0
                4.8876228,45.7542485,0
                4.8875692,45.7542017,0
                4.8876053,45.7539411,0
                4.8894856,45.7537428,0
                4.8895432,45.7541156,0
              </coordinates>
            </LinearRing>
          </outerBoundaryIs>
        </Polygon>
      </Placemark>
      <Placemark>
        <name>147</name>
        <styleUrl>#poly-000000-1200-77-nodesc</styleUrl>
        <Polygon>
          <outerBoundaryIs>
            <LinearRing>
              <tessellate>1</tessellate>
              <coordinates>
                4.8857237,45.7542129,0
                4.8857458,45.75415,0
                4.8875168,45.7539561,0
                4.8874967,45.7542279,0
                4.8871185,45.7542204,0
                4.887093,45.7542092,0
                4.8857687,45.7542167,0
                4.8857237,45.7542129,0
              </coordinates>
            </LinearRing>
          </outerBoundaryIs>
        </Polygon>
      </Placemark>
      <Placemark>
        <name>148</name>
        <styleUrl>#poly-000000-1200-77-nodesc</styleUrl>
        <Polygon>
          <outerBoundaryIs>
            <LinearRing>
              <tessellate>1</tessellate>
              <coordinates>
                4.8960841,45.7520307,0
                4.8966714,45.7513027,0
                4.8972119,45.7514936,0
                4.8976773,45.7516845,0
                4.8979093,45.7521636,0
                4.8981842,45.7527082,0
                4.8980816,45.7527181,0
                4.8979495,45.7527316,0
                4.8978302,45.7526989,0
                4.8960841,45.7520307,0
              </coordinates>
            </LinearRing>
          </outerBoundaryIs>
        </Polygon>
      </Placemark>
      <Placemark>
        <name>149</name>
        <styleUrl>#poly-000000-1200-77-nodesc</styleUrl>
        <Polygon>
          <outerBoundaryIs>
            <LinearRing>
              <tessellate>1</tessellate>
              <coordinates>
                4.8942816,45.7526558,0
                4.894971,45.7517313,0
                4.89595,45.7520831,0
                4.8956375,45.7525204,0
                4.8952928,45.7529653,0
                4.8952471,45.7529978,0
                4.8951826,45.7530141,0
                4.8951277,45.7529575,0
                4.8950112,45.752901,0
                4.8942816,45.7526558,0
              </coordinates>
            </LinearRing>
          </outerBoundaryIs>
        </Polygon>
      </Placemark>
      <Placemark>
        <name>150</name>
        <styleUrl>#poly-000000-1200-77-nodesc</styleUrl>
        <Polygon>
          <outerBoundaryIs>
            <LinearRing>
              <tessellate>1</tessellate>
              <coordinates>
                4.8950273,45.7516546,0
                4.8955744,45.7509041,0
                4.8965668,45.7512634,0
                4.8960009,45.7520082,0
                4.8950273,45.7516546,0
              </coordinates>
            </LinearRing>
          </outerBoundaryIs>
        </Polygon>
      </Placemark>
      <Placemark>
        <name>151</name>
        <styleUrl>#poly-000000-1200-77-nodesc</styleUrl>
        <Polygon>
          <outerBoundaryIs>
            <LinearRing>
              <tessellate>1</tessellate>
              <coordinates>
                4.8932301,45.7523264,0
                4.8939115,45.7513495,0
                4.8949012,45.751705,0
                4.8942065,45.7526352,0
                4.8932301,45.7523264,0
              </coordinates>
            </LinearRing>
          </outerBoundaryIs>
        </Polygon>
      </Placemark>
      <Placemark>
        <name>152</name>
        <styleUrl>#poly-000000-1200-77-nodesc</styleUrl>
        <Polygon>
          <outerBoundaryIs>
            <LinearRing>
              <tessellate>1</tessellate>
              <coordinates>
                4.8939705,45.7512708,0
                4.8945069,45.7504867,0
                4.8955127,45.7508779,0
                4.8949602,45.7516321,0
                4.8939705,45.7512708,0
              </coordinates>
            </LinearRing>
          </outerBoundaryIs>
        </Polygon>
      </Placemark>
      <Placemark>
        <name>153</name>
        <styleUrl>#poly-000000-1200-77-nodesc</styleUrl>
        <Polygon>
          <outerBoundaryIs>
            <LinearRing>
              <tessellate>1</tessellate>
              <coordinates>
                4.8913071,45.7502688,0
                4.8917042,45.7494714,0
                4.8930331,45.7499622,0
                4.8937726,45.7502422,0
                4.8944318,45.7504586,0
                4.8939061,45.7512428,0
                4.8927729,45.7508288,0
                4.8913071,45.7502688,0
              </coordinates>
            </LinearRing>
          </outerBoundaryIs>
        </Polygon>
      </Placemark>
      <Placemark>
        <name>154</name>
        <styleUrl>#poly-000000-1200-77-nodesc</styleUrl>
        <Polygon>
          <outerBoundaryIs>
            <LinearRing>
              <tessellate>1</tessellate>
              <coordinates>
                4.8923753,45.7520438,0
                4.8930512,45.7510294,0
                4.8938498,45.7513233,0
                4.8931604,45.7523077,0
                4.8923753,45.7520438,0
              </coordinates>
            </LinearRing>
          </outerBoundaryIs>
        </Polygon>
      </Placemark>
      <Placemark>
        <name>155</name>
        <styleUrl>#poly-000000-1200-77-nodesc</styleUrl>
        <Polygon>
          <outerBoundaryIs>
            <LinearRing>
              <tessellate>1</tessellate>
              <coordinates>
                4.8917529,45.7518416,0
                4.8924288,45.750801,0
                4.8929841,45.7510088,0
                4.8922948,45.7520213,0
                4.8917529,45.7518416,0
              </coordinates>
            </LinearRing>
          </outerBoundaryIs>
        </Polygon>
      </Placemark>
      <Placemark>
        <name>156</name>
        <styleUrl>#poly-000000-1200-77-nodesc</styleUrl>
        <Polygon>
          <outerBoundaryIs>
            <LinearRing>
              <tessellate>1</tessellate>
              <coordinates>
                4.8912192,45.7516601,0
                4.8919059,45.7506045,0
                4.8923618,45.7507748,0
                4.8916858,45.7518154,0
                4.8912192,45.7516601,0
              </coordinates>
            </LinearRing>
          </outerBoundaryIs>
        </Polygon>
      </Placemark>
      <Placemark>
        <name>157</name>
        <styleUrl>#poly-000000-1200-77-nodesc</styleUrl>
        <Polygon>
          <outerBoundaryIs>
            <LinearRing>
              <tessellate>1</tessellate>
              <coordinates>
                4.8906902,45.7514908,0
                4.8912615,45.7503567,0
                4.8918415,45.7505764,0
                4.8911629,45.7516414,0
                4.8906902,45.7514908,0
              </coordinates>
            </LinearRing>
          </outerBoundaryIs>
        </Polygon>
      </Placemark>
      <Placemark>
        <name>158</name>
        <styleUrl>#poly-000000-1200-77-nodesc</styleUrl>
        <Polygon>
          <outerBoundaryIs>
            <LinearRing>
              <tessellate>1</tessellate>
              <coordinates>
                4.8899342,45.7512536,0
                4.8905297,45.7500876,0
                4.8911972,45.7503324,0
                4.8906204,45.7514646,0
                4.8899342,45.7512536,0
              </coordinates>
            </LinearRing>
          </outerBoundaryIs>
        </Polygon>
      </Placemark>
      <Placemark>
        <name>159</name>
        <styleUrl>#poly-000000-1200-77-nodesc</styleUrl>
        <Polygon>
          <outerBoundaryIs>
            <LinearRing>
              <tessellate>1</tessellate>
              <coordinates>
                4.8891725,45.7509897,0
                4.8897921,45.7498199,0
                4.8904707,45.750067,0
                4.8898698,45.751218,0
                4.8891725,45.7509897,0
              </coordinates>
            </LinearRing>
          </outerBoundaryIs>
        </Polygon>
      </Placemark>
      <Placemark>
        <name>160</name>
        <styleUrl>#poly-000000-1200-77-nodesc</styleUrl>
        <Polygon>
          <outerBoundaryIs>
            <LinearRing>
              <tessellate>1</tessellate>
              <coordinates>
                4.8897867,45.749745,0
                4.8902195,45.7489004,0
                4.8916827,45.7494209,0
                4.8912535,45.7502856,0
                4.8897867,45.749745,0
              </coordinates>
            </LinearRing>
          </outerBoundaryIs>
        </Polygon>
      </Placemark>
      <Placemark>
        <name>161</name>
        <styleUrl>#poly-000000-1200-77-nodesc</styleUrl>
        <Polygon>
          <outerBoundaryIs>
            <LinearRing>
              <tessellate>1</tessellate>
              <coordinates>
                4.8877519,45.7505287,0
                4.8885191,45.7493608,0
                4.8897223,45.7497824,0
                4.8891,45.7509672,0
                4.8877519,45.7505287,0
              </coordinates>
            </LinearRing>
          </outerBoundaryIs>
        </Polygon>
      </Placemark>
      <Placemark>
        <name>162</name>
        <styleUrl>#poly-000000-1200-77-nodesc</styleUrl>
        <MultiGeometry>
          <Polygon>
            <outerBoundaryIs>
              <LinearRing>
                <tessellate>1</tessellate>
                <coordinates>
                  4.8871253,45.7493384,0
                  4.8870743,45.7494918,0
                  4.8869026,45.749766,0
                  4.8871253,45.7493384,0
                </coordinates>
              </LinearRing>
            </outerBoundaryIs>
          </Polygon>
          <Polygon>
            <outerBoundaryIs>
              <LinearRing>
                <tessellate>1</tessellate>
                <coordinates>
                  4.8869026,45.749766,0
                  4.8873183,45.749897,0
                  4.887895,45.7500702,0
                  4.8876215,45.7504931,0
                  4.8866478,45.7501637,0
                  4.8869026,45.749766,0
                </coordinates>
              </LinearRing>
            </outerBoundaryIs>
          </Polygon>
        </MultiGeometry>
      </Placemark>
      <Placemark>
        <name>163</name>
        <styleUrl>#poly-000000-1200-77-nodesc</styleUrl>
        <Polygon>
          <outerBoundaryIs>
            <LinearRing>
              <tessellate>1</tessellate>
              <coordinates>
                4.8878763,45.7490725,0
                4.8881579,45.7481854,0
                4.8885771,45.7483211,0
                4.8901766,45.7489135,0
                4.8897652,45.7497113,0
                4.8885338,45.7492684,0
                4.8878763,45.7490725,0
              </coordinates>
            </LinearRing>
          </outerBoundaryIs>
        </Polygon>
      </Placemark>
      <Placemark>
        <name>164</name>
        <styleUrl>#poly-000000-1200-77-nodesc</styleUrl>
        <Polygon>
          <outerBoundaryIs>
            <LinearRing>
              <tessellate>1</tessellate>
              <coordinates>
                4.8857991,45.7499049,0
                4.8861516,45.749372,0
                4.8869241,45.749606,0
                4.8865808,45.7501431,0
                4.8857991,45.7499049,0
              </coordinates>
            </LinearRing>
          </outerBoundaryIs>
        </Polygon>
      </Placemark>
      <Placemark>
        <name>165</name>
        <styleUrl>#poly-000000-1200-77-nodesc</styleUrl>
        <Polygon>
          <outerBoundaryIs>
            <LinearRing>
              <tessellate>1</tessellate>
              <coordinates>
                4.8861918,45.7493196,0
                4.8865566,45.7487375,0
                4.887085,45.7488985,0
                4.8871226,45.7489547,0
                4.8870475,45.7493683,0
                4.8869455,45.7495573,0
                4.8861918,45.7493196,0
              </coordinates>
            </LinearRing>
          </outerBoundaryIs>
        </Polygon>
      </Placemark>
      <Placemark>
        <name>166</name>
        <styleUrl>#poly-000000-1200-77-nodesc</styleUrl>
        <Polygon>
          <outerBoundaryIs>
            <LinearRing>
              <tessellate>1</tessellate>
              <coordinates>
                4.8857305,45.7498811,0
                4.8840568,45.7493346,0
                4.8838154,45.7486534,0
                4.884891,45.7490015,0
                4.8860953,45.7493421,0
                4.8857305,45.7498811,0
              </coordinates>
            </LinearRing>
          </outerBoundaryIs>
        </Polygon>
      </Placemark>
      <Placemark>
        <name>167</name>
        <styleUrl>#poly-000000-1200-77-nodesc</styleUrl>
        <Polygon>
          <outerBoundaryIs>
            <LinearRing>
              <tessellate>1</tessellate>
              <coordinates>
                4.88381,45.7485934,0
                4.8842178,45.747987,0
                4.8864869,45.7487207,0
                4.8861006,45.7493009,0
                4.88381,45.7485934,0
              </coordinates>
            </LinearRing>
          </outerBoundaryIs>
        </Polygon>
      </Placemark>
      <Placemark>
        <name>168</name>
        <styleUrl>#poly-000000-1200-77-nodesc</styleUrl>
        <Polygon>
          <outerBoundaryIs>
            <LinearRing>
              <tessellate>1</tessellate>
              <coordinates>
                4.8838798,45.7492822,0
                4.8810635,45.7483539,0
                4.8808811,45.7479983,0
                4.8813799,45.7478486,0
                4.8814712,45.7479159,0
                4.8836813,45.7486084,0
                4.8838999,45.7492794,0
                4.8838798,45.7492822,0
              </coordinates>
            </LinearRing>
          </outerBoundaryIs>
        </Polygon>
      </Placemark>
      <Placemark>
        <name>169</name>
        <styleUrl>#poly-000000-1200-77-nodesc</styleUrl>
        <Polygon>
          <outerBoundaryIs>
            <LinearRing>
              <tessellate>1</tessellate>
              <coordinates>
                4.8814658,45.747827,0
                4.8818614,45.747681,0
                4.8823985,45.7475205,0
                4.8825424,45.7474674,0
                4.8825955,45.7474652,0
                4.8826999,45.7475006,0
                4.8828726,45.7475781,0
                4.8833581,45.7477278,0
                4.8841038,45.7479609,0
                4.8837162,45.7485579,0
                4.8815235,45.7478645,0
                4.8814658,45.747827,0
              </coordinates>
            </LinearRing>
          </outerBoundaryIs>
        </Polygon>
      </Placemark>
      <Placemark>
        <name>170</name>
        <styleUrl>#poly-000000-1200-77-nodesc</styleUrl>
        <Polygon>
          <outerBoundaryIs>
            <LinearRing>
              <tessellate>1</tessellate>
              <coordinates>
                4.8847757,45.7480827,0
                4.882992,45.7475266,0
                4.88276,45.7474311,0
                4.8827318,45.747403,0
                4.8848708,45.7467248,0
                4.8847757,45.7480827,0
              </coordinates>
            </LinearRing>
          </outerBoundaryIs>
        </Polygon>
      </Placemark>
      <Placemark>
        <name>171</name>
        <styleUrl>#poly-000000-1200-77-nodesc</styleUrl>
        <Polygon>
          <outerBoundaryIs>
            <LinearRing>
              <tessellate>1</tessellate>
              <coordinates>
                4.8848467,45.7480995,0
                4.8849459,45.7467318,0
                4.8849614,45.7467021,0
                4.8851085,45.7466498,0
                4.8853511,45.7465796,0
                4.8856929,45.7464805,0
                4.8854476,45.7482988,0
                4.8848467,45.7480995,0
              </coordinates>
            </LinearRing>
          </outerBoundaryIs>
        </Polygon>
      </Placemark>
      <Placemark>
        <name>172</name>
        <styleUrl>#poly-000000-1200-77-nodesc</styleUrl>
        <Polygon>
          <outerBoundaryIs>
            <LinearRing>
              <tessellate>1</tessellate>
              <coordinates>
                4.885524,45.7483288,0
                4.8857707,45.7464683,0
                4.8875571,45.7458881,0
                4.8871065,45.748823,0
                4.885524,45.7483288,0
              </coordinates>
            </LinearRing>
          </outerBoundaryIs>
        </Polygon>
      </Placemark>
      <Placemark>
        <name>173</name>
        <styleUrl>#poly-000000-1200-77-nodesc</styleUrl>
        <Polygon>
          <outerBoundaryIs>
            <LinearRing>
              <tessellate>1</tessellate>
              <coordinates>
                4.8872352,45.7488472,0
                4.887423,45.7475576,0
                4.8882223,45.7477336,0
                4.8877985,45.7490463,0
                4.8872352,45.7488472,0
              </coordinates>
            </LinearRing>
          </outerBoundaryIs>
        </Polygon>
      </Placemark>
      <Placemark>
        <name>174</name>
        <styleUrl>#poly-000000-1200-77-nodesc</styleUrl>
        <Polygon>
          <outerBoundaryIs>
            <LinearRing>
              <tessellate>1</tessellate>
              <coordinates>
                4.8881793,45.748133,0
                4.8883162,45.7477523,0
                4.8919339,45.7488828,0
                4.89168,45.7494022,0
                4.8881793,45.748133,0
              </coordinates>
            </LinearRing>
          </outerBoundaryIs>
        </Polygon>
      </Placemark>
      <Placemark>
        <name>175</name>
        <styleUrl>#poly-000000-1200-77-nodesc</styleUrl>
        <Polygon>
          <outerBoundaryIs>
            <LinearRing>
              <tessellate>1</tessellate>
              <coordinates>
                4.8917015,45.7494153,0
                4.8919554,45.7488884,0
                4.8931051,45.7492381,0
                4.894287,45.7496084,0
                4.8947644,45.7499013,0
                4.8951909,45.7501718,0
                4.894692,45.7500857,0
                4.8944639,45.7504174,0
                4.8917015,45.7494153,0
              </coordinates>
            </LinearRing>
          </outerBoundaryIs>
        </Polygon>
      </Placemark>
      <Placemark>
        <name>176</name>
        <styleUrl>#poly-000000-1200-77-nodesc</styleUrl>
        <Polygon>
          <outerBoundaryIs>
            <LinearRing>
              <tessellate>1</tessellate>
              <coordinates>
                4.894531,45.7504474,0
                4.8947027,45.7501717,0
                4.8947795,45.7501618,0
                4.8958969,45.7503427,0
                4.8955395,45.7508386,0
                4.894531,45.7504474,0
              </coordinates>
            </LinearRing>
          </outerBoundaryIs>
        </Polygon>
      </Placemark>
      <Placemark>
        <name>177</name>
        <styleUrl>#poly-000000-1200-77-nodesc</styleUrl>
        <Polygon>
          <outerBoundaryIs>
            <LinearRing>
              <tessellate>1</tessellate>
              <coordinates>
                4.8956093,45.7508592,0
                4.8959774,45.750352,0
                4.8970395,45.7505374,0
                4.8968353,45.7508817,0
                4.896599,45.7512147,0
                4.8956093,45.7508592,0
              </coordinates>
            </LinearRing>
          </outerBoundaryIs>
        </Polygon>
      </Placemark>
      <Placemark>
        <name>178</name>
        <styleUrl>#poly-000000-1200-77-nodesc</styleUrl>
        <Polygon>
          <outerBoundaryIs>
            <LinearRing>
              <tessellate>1</tessellate>
              <coordinates>
                4.8967042,45.7512524,0
                4.8971817,45.7505355,0
                4.8974713,45.751271,0
                4.8974553,45.7515237,0
                4.8967042,45.7512524,0
              </coordinates>
            </LinearRing>
          </outerBoundaryIs>
        </Polygon>
      </Placemark>
      <Placemark>
        <name>179</name>
        <styleUrl>#poly-000000-1200-77-nodesc</styleUrl>
        <Polygon>
          <outerBoundaryIs>
            <LinearRing>
              <tessellate>1</tessellate>
              <coordinates>
                4.8971254,45.7504513,0
                4.8970825,45.7504859,0
                4.8970127,45.750483,0
                4.8953304,45.7501924,0
                4.894916,45.7499172,0
                4.8944077,45.7496215,0
                4.8947728,45.7497051,0
                4.8950869,45.74977,0
                4.8952048,45.7497588,0
                4.8953631,45.7496952,0
                4.895457,45.749712,0
                4.8969188,45.7496184,0
                4.8970194,45.7501434,0
                4.8971254,45.7504513,0
              </coordinates>
            </LinearRing>
          </outerBoundaryIs>
        </Polygon>
      </Placemark>
      <Placemark>
        <name>180</name>
        <styleUrl>#poly-000000-1200-77-nodesc</styleUrl>
        <Polygon>
          <outerBoundaryIs>
            <LinearRing>
              <tessellate>1</tessellate>
              <coordinates>
                4.8969295,45.7495641,0
                4.8956447,45.7496577,0
                4.8954221,45.7496577,0
                4.8951101,45.7495461,0
                4.8964405,45.7475808,0
                4.8965317,45.7475004,0
                4.8966689,45.7480231,0
                4.8967778,45.7487057,0
                4.8969295,45.7495641,0
              </coordinates>
            </LinearRing>
          </outerBoundaryIs>
        </Polygon>
      </Placemark>
      <Placemark>
        <name>181</name>
        <styleUrl>#poly-000000-1200-77-nodesc</styleUrl>
        <Polygon>
          <outerBoundaryIs>
            <LinearRing>
              <tessellate>1</tessellate>
              <coordinates>
                4.89654,45.7474383,0
                4.896438,45.7474796,0
                4.8956012,45.748683,0
                4.895231,45.7449171,0
                4.8953544,45.7448946,0
                4.8962637,45.7466298,0
                4.8963589,45.7468319,0
                4.89654,45.7474383,0
              </coordinates>
            </LinearRing>
          </outerBoundaryIs>
        </Polygon>
      </Placemark>
      <Placemark>
        <name>182</name>
        <styleUrl>#poly-000000-1200-77-nodesc</styleUrl>
        <Polygon>
          <outerBoundaryIs>
            <LinearRing>
              <tessellate>1</tessellate>
              <coordinates>
                4.8919809,45.7488416,0
                4.8920191,45.7487932,0
                4.892052,45.7486699,0
                4.8920589,45.7481201,0
                4.893392,45.7484851,0
                4.8934577,45.7484963,0
                4.8935334,45.7485562,0
                4.8936142,45.7488294,0
                4.8937111,45.749069,0
                4.8944111,45.7493587,0
                4.8952827,45.7496708,0
                4.8952078,45.7497035,0
                4.8951367,45.7497166,0
                4.8949693,45.749698,0
                4.8946697,45.749612,0
                4.8944917,45.7495802,0
                4.8943352,45.7495634,0
                4.8919809,45.7488416,0
              </coordinates>
            </LinearRing>
          </outerBoundaryIs>
        </Polygon>
      </Placemark>
      <Placemark>
        <name>183</name>
        <styleUrl>#poly-000000-1200-77-nodesc</styleUrl>
        <Polygon>
          <outerBoundaryIs>
            <LinearRing>
              <tessellate>1</tessellate>
              <coordinates>
                4.8904925,45.7483535,0
                4.8906212,45.7476927,0
                4.8911255,45.7478287,0
                4.8919945,45.7481032,0
                4.8919877,45.7484387,0
                4.8919796,45.7486846,0
                4.8919984,45.7487439,0
                4.891993,45.7487942,0
                4.8919581,45.748835,0
                4.8904925,45.7483535,0
              </coordinates>
            </LinearRing>
          </outerBoundaryIs>
        </Polygon>
      </Placemark>
      <Placemark>
        <name>184</name>
        <styleUrl>#poly-000000-1200-77-nodesc</styleUrl>
        <Polygon>
          <outerBoundaryIs>
            <LinearRing>
              <tessellate>1</tessellate>
              <coordinates>
                4.8951532,45.744934,0
                4.8953557,45.7468637,0
                4.8953437,45.7469367,0
                4.8947963,45.7469557,0
                4.8937272,45.74707,0
                4.8939204,45.7474182,0
                4.8943602,45.7492749,0
                4.8938009,45.7490528,0
                4.8937278,45.7489361,0
                4.8936108,45.7485558,0
                4.8935255,45.7484668,0
                4.8932522,45.7483904,0
                4.8926166,45.7482119,0
                4.8922586,45.748117,0
                4.8920769,45.7480677,0
                4.8921608,45.7466838,0
                4.8924639,45.7466876,0
                4.8927857,45.7466988,0
                4.8928556,45.7467008,0
                4.8928878,45.74531,0
                4.8951532,45.744934,0
              </coordinates>
            </LinearRing>
          </outerBoundaryIs>
        </Polygon>
      </Placemark>
      <Placemark>
        <name>185</name>
        <styleUrl>#poly-000000-1200-77-nodesc</styleUrl>
        <Polygon>
          <outerBoundaryIs>
            <LinearRing>
              <tessellate>1</tessellate>
              <coordinates>
                4.8921661,45.7466296,0
                4.8922493,45.7453385,0
                4.8927966,45.7453193,0
                4.8928167,45.7453661,0
                4.8927831,45.7466446,0
                4.8921661,45.7466296,0
              </coordinates>
            </LinearRing>
          </outerBoundaryIs>
        </Polygon>
      </Placemark>
      <Placemark>
        <name>186</name>
        <styleUrl>#poly-000000-1200-77-nodesc</styleUrl>
        <Polygon>
          <outerBoundaryIs>
            <LinearRing>
              <tessellate>1</tessellate>
              <coordinates>
                4.8906159,45.7476366,0
                4.8907554,45.7470376,0
                4.8920455,45.7472865,0
                4.8919945,45.748049,0
                4.8911174,45.747766,0
                4.8906159,45.7476366,0
              </coordinates>
            </LinearRing>
          </outerBoundaryIs>
        </Polygon>
      </Placemark>
      <Placemark>
        <name>187</name>
        <styleUrl>#poly-000000-1200-77-nodesc</styleUrl>
        <Polygon>
          <outerBoundaryIs>
            <LinearRing>
              <tessellate>1</tessellate>
              <coordinates>
                4.8907741,45.746989,0
                4.8908654,45.7466351,0
                4.8920883,45.7466763,0
                4.8920375,45.747236,0
                4.8907741,45.746989,0
              </coordinates>
            </LinearRing>
          </outerBoundaryIs>
        </Polygon>
      </Placemark>
      <Placemark>
        <name>188</name>
        <styleUrl>#poly-000000-1200-77-nodesc</styleUrl>
        <Polygon>
          <outerBoundaryIs>
            <LinearRing>
              <tessellate>1</tessellate>
              <coordinates>
                4.8908975,45.7465809,0
                4.8910022,45.7461148,0
                4.8910625,45.7456881,0
                4.8910826,45.7453717,0
                4.8921608,45.7453422,0
                4.8920937,45.7466277,0
                4.8908975,45.7465809,0
              </coordinates>
            </LinearRing>
          </outerBoundaryIs>
        </Polygon>
      </Placemark>
      <Placemark>
        <name>189</name>
        <styleUrl>#poly-000000-1200-77-nodesc</styleUrl>
        <Polygon>
          <outerBoundaryIs>
            <LinearRing>
              <tessellate>1</tessellate>
              <coordinates>
                4.8883377,45.7476999,0
                4.8885748,45.7465322,0
                4.8907929,45.7466277,0
                4.8906884,45.7469927,0
                4.8905864,45.7474064,0
                4.8904201,45.7483347,0
                4.8883377,45.7476999,0
              </coordinates>
            </LinearRing>
          </outerBoundaryIs>
        </Polygon>
      </Placemark>
      <Placemark>
        <name>190</name>
        <styleUrl>#poly-000000-1200-77-nodesc</styleUrl>
        <Polygon>
          <outerBoundaryIs>
            <LinearRing>
              <tessellate>1</tessellate>
              <coordinates>
                4.8885801,45.7464779,0
                4.8887712,45.7455196,0
                4.889069,45.7454466,0
                4.8892499,45.7454232,0
                4.8900262,45.7454073,0
                4.8910102,45.7453792,0
                4.8909834,45.7458968,0
                4.8909244,45.7461092,0
                4.890809,45.746579,0
                4.8885801,45.7464779,0
              </coordinates>
            </LinearRing>
          </outerBoundaryIs>
        </Polygon>
      </Placemark>
      <Placemark>
        <name>191</name>
        <styleUrl>#poly-000000-1200-77-nodesc</styleUrl>
        <Polygon>
          <outerBoundaryIs>
            <LinearRing>
              <tessellate>1</tessellate>
              <coordinates>
                4.8874462,45.7475036,0
                4.8876778,45.7458862,0
                4.887739,45.7458358,0
                4.8886746,45.7455496,0
                4.8882572,45.7476831,0
                4.8874462,45.7475036,0
              </coordinates>
            </LinearRing>
          </outerBoundaryIs>
        </Polygon>
      </Placemark>
      <Placemark>
        <name>192</name>
        <styleUrl>#poly-000000-1200-77-nodesc</styleUrl>
        <Polygon>
          <outerBoundaryIs>
            <LinearRing>
              <tessellate>1</tessellate>
              <coordinates>
                4.8895045,45.7452942,0
                4.8908027,45.7448908,0
                4.8922537,45.7444425,0
                4.8927912,45.7452707,0
                4.889585,45.7453616,0
                4.8892685,45.745371,0
                4.8895045,45.7452942,0
              </coordinates>
            </LinearRing>
          </outerBoundaryIs>
        </Polygon>
      </Placemark>
      <Placemark>
        <name>193</name>
        <styleUrl>#poly-000000-1200-77-nodesc</styleUrl>
        <Polygon>
          <outerBoundaryIs>
            <LinearRing>
              <tessellate>1</tessellate>
              <coordinates>
                4.8928663,45.7452538,0
                4.8923369,45.74442,0
                4.8934044,45.7440851,0
                4.8939516,45.745079,0
                4.8928663,45.7452538,0
              </coordinates>
            </LinearRing>
          </outerBoundaryIs>
        </Polygon>
      </Placemark>
      <Placemark>
        <name>194</name>
        <styleUrl>#poly-000000-1200-77-nodesc</styleUrl>
        <Polygon>
          <outerBoundaryIs>
            <LinearRing>
              <tessellate>1</tessellate>
              <coordinates>
                4.8940294,45.7450621,0
                4.8934742,45.7440607,0
                4.8938081,45.743968,0
                4.8941018,45.7438922,0
                4.8943338,45.7437733,0
                4.8945396,45.7436493,0
                4.8946167,45.7436339,0
                4.8947415,45.7437368,0
                4.8948314,45.7438585,0
                4.8953329,45.7448478,0
                4.8940294,45.7450621,0
              </coordinates>
            </LinearRing>
          </outerBoundaryIs>
        </Polygon>
      </Placemark>
      <Placemark>
        <name>201</name>
        <styleUrl>#poly-000000-1200-77-nodesc</styleUrl>
        <Polygon>
          <outerBoundaryIs>
            <LinearRing>
              <tessellate>1</tessellate>
              <coordinates>
                4.8738755,45.7503462,0
                4.8735589,45.7497135,0
                4.8745407,45.7494721,0
                4.8755224,45.7492456,0
                4.8756485,45.7497193,0
                4.8738755,45.7503462,0
              </coordinates>
            </LinearRing>
          </outerBoundaryIs>
        </Polygon>
      </Placemark>
      <Placemark>
        <name>202</name>
        <styleUrl>#poly-000000-1200-77-nodesc</styleUrl>
        <Polygon>
          <outerBoundaryIs>
            <LinearRing>
              <tessellate>1</tessellate>
              <coordinates>
                4.8755331,45.7491819,0
                4.8735107,45.7496611,0
                4.8731564,45.7489146,0
                4.8753987,45.7484429,0
                4.8755331,45.7491819,0
              </coordinates>
            </LinearRing>
          </outerBoundaryIs>
        </Polygon>
      </Placemark>
      <Placemark>
        <name>203</name>
        <styleUrl>#poly-000000-1200-77-nodesc</styleUrl>
        <Polygon>
          <outerBoundaryIs>
            <LinearRing>
              <tessellate>1</tessellate>
              <coordinates>
                4.8731296,45.7488584,0
                4.8722016,45.7472469,0
                4.8713272,45.7455904,0
                4.8731886,45.7449652,0
                4.8739342,45.7473386,0
                4.8751519,45.7470915,0
                4.8754041,45.748383,0
                4.8731296,45.7488584,0
              </coordinates>
            </LinearRing>
          </outerBoundaryIs>
        </Polygon>
      </Placemark>
      <Placemark>
        <name>204</name>
        <styleUrl>#poly-000000-1200-77-nodesc</styleUrl>
        <Polygon>
          <outerBoundaryIs>
            <LinearRing>
              <tessellate>1</tessellate>
              <coordinates>
                4.8739905,45.7472806,0
                4.8735982,45.7460139,0
                4.8749285,45.7458886,0
                4.8751385,45.7470334,0
                4.8739905,45.7472806,0
              </coordinates>
            </LinearRing>
          </outerBoundaryIs>
        </Polygon>
      </Placemark>
      <Placemark>
        <name>205</name>
        <styleUrl>#poly-000000-1200-77-nodesc</styleUrl>
        <Polygon>
          <outerBoundaryIs>
            <LinearRing>
              <tessellate>1</tessellate>
              <coordinates>
                4.873574,45.7459578,0
                4.8732798,45.7449389,0
                4.8745236,45.7444903,0
                4.8749044,45.7458343,0
                4.8736169,45.745969,0
                4.873574,45.7459578,0
              </coordinates>
            </LinearRing>
          </outerBoundaryIs>
        </Polygon>
      </Placemark>
      <Placemark>
        <name>206</name>
        <styleUrl>#poly-000000-1200-77-nodesc</styleUrl>
        <Polygon>
          <outerBoundaryIs>
            <LinearRing>
              <tessellate>1</tessellate>
              <coordinates>
                4.8757788,45.7497124,0
                4.8752324,45.7470428,0
                4.8749741,45.745853,0
                4.8746469,45.7444491,0
                4.8769374,45.743648,0
                4.8770877,45.7447262,0
                4.8771735,45.7452728,0
                4.877372,45.7463471,0
                4.877592,45.7475712,0
                4.8778011,45.7488739,0
                4.876747,45.7492782,0
                4.8757788,45.7497124,0
              </coordinates>
            </LinearRing>
          </outerBoundaryIs>
        </Polygon>
      </Placemark>
      <Placemark>
        <name>207</name>
        <styleUrl>#poly-000000-1200-77-nodesc</styleUrl>
        <Polygon>
          <outerBoundaryIs>
            <LinearRing>
              <tessellate>1</tessellate>
              <coordinates>
                4.8778816,45.7488327,0
                4.8776885,45.7475974,0
                4.8801503,45.7467963,0
                4.880747,45.7479346,0
                4.8778816,45.7488327,0
              </coordinates>
            </LinearRing>
          </outerBoundaryIs>
        </Polygon>
      </Placemark>
      <Placemark>
        <name>208</name>
        <styleUrl>#poly-000000-1200-77-nodesc</styleUrl>
        <Polygon>
          <outerBoundaryIs>
            <LinearRing>
              <tessellate>1</tessellate>
              <coordinates>
                4.8776671,45.747545,0
                4.8774842,45.7465829,0
                4.8796621,45.7458267,0
                4.8801342,45.7467289,0
                4.8776671,45.747545,0
              </coordinates>
            </LinearRing>
          </outerBoundaryIs>
        </Polygon>
      </Placemark>
      <Placemark>
        <name>209</name>
        <styleUrl>#poly-000000-1200-77-nodesc</styleUrl>
        <Polygon>
          <outerBoundaryIs>
            <LinearRing>
              <tessellate>1</tessellate>
              <coordinates>
                4.8796433,45.7457631,0
                4.8774788,45.7465099,0
                4.8770845,45.7442266,0
                4.878954,45.7446983,0
                4.8791096,45.744704,0
                4.8796433,45.7457631,0
              </coordinates>
            </LinearRing>
          </outerBoundaryIs>
        </Polygon>
      </Placemark>
      <Placemark>
        <name>210</name>
        <styleUrl>#poly-000000-1200-77-nodesc</styleUrl>
        <Polygon>
          <outerBoundaryIs>
            <LinearRing>
              <tessellate>1</tessellate>
              <coordinates>
                4.8770604,45.7441499,0
                4.8770099,45.7436255,0
                4.8775056,45.743433,0
                4.8780072,45.7444063,0
                4.8770818,45.7441724,0
                4.8770604,45.7441499,0
              </coordinates>
            </LinearRing>
          </outerBoundaryIs>
        </Polygon>
      </Placemark>
      <Placemark>
        <name>211</name>
        <styleUrl>#poly-000000-1200-77-nodesc</styleUrl>
        <Polygon>
          <outerBoundaryIs>
            <LinearRing>
              <tessellate>1</tessellate>
              <coordinates>
                4.8781118,45.7444307,0
                4.8775754,45.7434162,0
                4.8778876,45.7433076,0
                4.8782427,45.7431991,0
                4.8784487,45.7432328,0
                4.8787604,45.7439366,0
                4.879072,45.7446479,0
                4.8790184,45.7446553,0
                4.8781118,45.7444307,0
              </coordinates>
            </LinearRing>
          </outerBoundaryIs>
        </Polygon>
      </Placemark>
      <Placemark>
        <name>212</name>
        <styleUrl>#poly-000000-1200-77-nodesc</styleUrl>
        <Polygon>
          <outerBoundaryIs>
            <LinearRing>
              <tessellate>1</tessellate>
              <coordinates>
                4.8808436,45.7479084,0
                4.8799562,45.7461827,0
                4.8792544,45.7447489,0
                4.8804712,45.7451945,0
                4.8816407,45.7476614,0
                4.8808436,45.7479084,0
              </coordinates>
            </LinearRing>
          </outerBoundaryIs>
        </Polygon>
      </Placemark>
      <Placemark>
        <name>213</name>
        <styleUrl>#poly-000000-1200-77-nodesc</styleUrl>
        <Polygon>
          <outerBoundaryIs>
            <LinearRing>
              <tessellate>1</tessellate>
              <coordinates>
                4.8817158,45.747624,0
                4.8805785,45.7452132,0
                4.8814528,45.7454453,0
                4.8823434,45.7474442,0
                4.8817158,45.747624,0
              </coordinates>
            </LinearRing>
          </outerBoundaryIs>
        </Polygon>
      </Placemark>
      <Placemark>
        <name>214</name>
        <styleUrl>#poly-000000-1200-77-nodesc</styleUrl>
        <Polygon>
          <outerBoundaryIs>
            <LinearRing>
              <tessellate>1</tessellate>
              <coordinates>
                4.8824131,45.7474143,0
                4.8815387,45.7454565,0
                4.8819678,45.7455127,0
                4.8823702,45.7455314,0
                4.8826223,45.7461921,0
                4.8829441,45.7472329,0
                4.8824131,45.7474143,0
              </coordinates>
            </LinearRing>
          </outerBoundaryIs>
        </Polygon>
      </Placemark>
      <Placemark>
        <name>215</name>
        <styleUrl>#poly-000000-1200-77-nodesc</styleUrl>
        <Polygon>
          <outerBoundaryIs>
            <LinearRing>
              <tessellate>1</tessellate>
              <coordinates>
                4.8830004,45.7472273,0
                4.8827123,45.7462622,0
                4.8824614,45.7455333,0
                4.883315,45.7455262,0
                4.884158,45.7455042,0
                4.8841929,45.7468499,0
                4.8830004,45.7472273,0
              </coordinates>
            </LinearRing>
          </outerBoundaryIs>
        </Polygon>
      </Placemark>
      <Placemark>
        <name>216</name>
        <styleUrl>#poly-000000-1200-77-nodesc</styleUrl>
        <Polygon>
          <outerBoundaryIs>
            <LinearRing>
              <tessellate>1</tessellate>
              <coordinates>
                4.8842546,45.746833,0
                4.8842438,45.7454892,0
                4.884968,45.7454779,0
                4.8848769,45.7466197,0
                4.8842546,45.746833,0
              </coordinates>
            </LinearRing>
          </outerBoundaryIs>
        </Polygon>
      </Placemark>
      <Placemark>
        <name>217</name>
        <styleUrl>#poly-000000-1200-77-nodesc</styleUrl>
        <Polygon>
          <outerBoundaryIs>
            <LinearRing>
              <tessellate>1</tessellate>
              <coordinates>
                4.8849305,45.7466234,0
                4.8850431,45.7454854,0
                4.8858263,45.7454929,0
                4.885703,45.7463763,0
                4.8849305,45.7466234,0
              </coordinates>
            </LinearRing>
          </outerBoundaryIs>
        </Polygon>
      </Placemark>
      <Placemark>
        <name>218</name>
        <styleUrl>#poly-000000-1200-77-nodesc</styleUrl>
        <Polygon>
          <outerBoundaryIs>
            <LinearRing>
              <tessellate>1</tessellate>
              <coordinates>
                4.8857942,45.7463501,0
                4.8859122,45.7454892,0
                4.887704,45.7454592,0
                4.88875,45.7454348,0
                4.887645,45.7457774,0
                4.8857942,45.7463501,0
              </coordinates>
            </LinearRing>
          </outerBoundaryIs>
        </Polygon>
      </Placemark>
      <Placemark>
        <name>219</name>
        <styleUrl>#poly-000000-1200-77-nodesc</styleUrl>
        <Polygon>
          <outerBoundaryIs>
            <LinearRing>
              <tessellate>1</tessellate>
              <coordinates>
                4.8858589,45.7454127,0
                4.8857033,45.7447819,0
                4.8877579,45.744533,0
                4.8876265,45.7453809,0
                4.8858589,45.7454127,0
              </coordinates>
            </LinearRing>
          </outerBoundaryIs>
        </Polygon>
      </Placemark>
      <Placemark>
        <name>220</name>
        <styleUrl>#poly-000000-1200-77-nodesc</styleUrl>
        <Polygon>
          <outerBoundaryIs>
            <LinearRing>
              <tessellate>1</tessellate>
              <coordinates>
                4.885698,45.744722,0
                4.8855976,45.7440584,0
                4.8878533,45.7438376,0
                4.8877633,45.7444881,0
                4.885698,45.744722,0
              </coordinates>
            </LinearRing>
          </outerBoundaryIs>
        </Polygon>
      </Placemark>
      <Placemark>
        <name>221</name>
        <styleUrl>#poly-000000-1200-77-nodesc</styleUrl>
        <Polygon>
          <outerBoundaryIs>
            <LinearRing>
              <tessellate>1</tessellate>
              <coordinates>
                4.8855923,45.7440023,0
                4.8854954,45.7433376,0
                4.8879818,45.7431541,0
                4.8878748,45.7437852,0
                4.8855923,45.7440023,0
              </coordinates>
            </LinearRing>
          </outerBoundaryIs>
        </Polygon>
      </Placemark>
      <Placemark>
        <name>222</name>
        <styleUrl>#poly-000000-1200-77-nodesc</styleUrl>
        <Polygon>
          <outerBoundaryIs>
            <LinearRing>
              <tessellate>1</tessellate>
              <coordinates>
                4.8854954,45.7432814,0
                4.8853854,45.7424803,0
                4.8880704,45.742484,0
                4.8879818,45.7431092,0
                4.8854954,45.7432814,0
              </coordinates>
            </LinearRing>
          </outerBoundaryIs>
        </Polygon>
      </Placemark>
      <Placemark>
        <name>223</name>
        <styleUrl>#poly-000000-1200-77-nodesc</styleUrl>
        <Polygon>
          <outerBoundaryIs>
            <LinearRing>
              <tessellate>1</tessellate>
              <coordinates>
                4.8853828,45.7424186,0
                4.8852862,45.7416061,0
                4.8854472,45.7415892,0
                4.8881883,45.7417727,0
                4.8880865,45.7424391,0
                4.8853828,45.7424186,0
              </coordinates>
            </LinearRing>
          </outerBoundaryIs>
        </Polygon>
      </Placemark>
      <Placemark>
        <name>224</name>
        <styleUrl>#poly-000000-1200-77-nodesc</styleUrl>
        <Polygon>
          <outerBoundaryIs>
            <LinearRing>
              <tessellate>1</tessellate>
              <coordinates>
                4.885246,45.7415575,0
                4.8852566,45.7413646,0
                4.8883439,45.7403501,0
                4.8883546,45.7404961,0
                4.8881883,45.741724,0
                4.8854565,45.7415397,0
                4.885246,45.7415575,0
              </coordinates>
            </LinearRing>
          </outerBoundaryIs>
        </Polygon>
      </Placemark>
      <Placemark>
        <name>225</name>
        <styleUrl>#poly-000000-1200-77-nodesc</styleUrl>
        <Polygon>
          <outerBoundaryIs>
            <LinearRing>
              <tessellate>1</tessellate>
              <coordinates>
                4.8878816,45.7445241,0
                4.8901936,45.7442321,0
                4.8904887,45.7448873,0
                4.8891154,45.7453177,0
                4.887763,45.7453694,0
                4.8878816,45.7445241,0
              </coordinates>
            </LinearRing>
          </outerBoundaryIs>
        </Polygon>
      </Placemark>
      <Placemark>
        <name>226</name>
        <styleUrl>#poly-000000-1200-77-nodesc</styleUrl>
        <Polygon>
          <outerBoundaryIs>
            <LinearRing>
              <tessellate>1</tessellate>
              <coordinates>
                4.8905664,45.7448592,0
                4.8902741,45.744219,0
                4.8925378,45.7439289,0
                4.8933157,45.7438259,0
                4.8933465,45.7439046,0
                4.8933828,45.7439963,0
                4.8925218,45.744264,0
                4.8915575,45.7445672,0
                4.8910459,45.7447263,0
                4.8905664,45.7448592,0
              </coordinates>
            </LinearRing>
          </outerBoundaryIs>
        </Polygon>
      </Placemark>
      <Placemark>
        <name>227</name>
        <styleUrl>#poly-000000-1200-77-nodesc</styleUrl>
        <Polygon>
          <outerBoundaryIs>
            <LinearRing>
              <tessellate>1</tessellate>
              <coordinates>
                4.8878959,45.7444634,0
                4.8881105,45.7431467,0
                4.8890573,45.7431157,0
                4.8891619,45.7433404,0
                4.8891807,45.7435088,0
                4.8891002,45.7443174,0
                4.8878959,45.7444634,0
              </coordinates>
            </LinearRing>
          </outerBoundaryIs>
        </Polygon>
      </Placemark>
      <Placemark>
        <name>228</name>
        <styleUrl>#poly-000000-1200-77-nodesc</styleUrl>
        <Polygon>
          <outerBoundaryIs>
            <LinearRing>
              <tessellate>1</tessellate>
              <coordinates>
                4.889009,45.7430558,0
                4.8881051,45.7430943,0
                4.8883063,45.7417839,0
                4.8892505,45.7418429,0
                4.889186,45.7422134,0
                4.8890574,45.7424681,0
                4.8889662,45.7425953,0
                4.8889393,45.7428723,0
                4.889009,45.7430558,0
              </coordinates>
            </LinearRing>
          </outerBoundaryIs>
        </Polygon>
      </Placemark>
      <Placemark>
        <name>229</name>
        <styleUrl>#poly-000000-1200-77-nodesc</styleUrl>
        <Polygon>
          <outerBoundaryIs>
            <LinearRing>
              <tessellate>1</tessellate>
              <coordinates>
                4.8891834,45.7442987,0
                4.8892612,45.7434976,0
                4.8892424,45.7433263,0
                4.8891431,45.7431026,0
                4.8900873,45.7430765,0
                4.8902107,45.7433684,0
                4.890149,45.7435462,0
                4.8900766,45.7438607,0
                4.8901731,45.7441751,0
                4.8891834,45.7442987,0
              </coordinates>
            </LinearRing>
          </outerBoundaryIs>
        </Polygon>
      </Placemark>
      <Placemark>
        <name>230</name>
        <styleUrl>#poly-000000-1200-77-nodesc</styleUrl>
        <Polygon>
          <outerBoundaryIs>
            <LinearRing>
              <tessellate>1</tessellate>
              <coordinates>
                4.8891056,45.7430521,0
                4.8890412,45.7429472,0
                4.889009,45.7428199,0
                4.8890305,45.7427058,0
                4.8890734,45.7425916,0
                4.889111,45.7424868,0
                4.8892612,45.7422846,0
                4.889331,45.7418504,0
                4.8902912,45.741914,0
                4.8901785,45.7424774,0
                4.8900659,45.7430222,0
                4.8891056,45.7430521,0
              </coordinates>
            </LinearRing>
          </outerBoundaryIs>
        </Polygon>
      </Placemark>
      <Placemark>
        <name>231</name>
        <styleUrl>#poly-000000-1200-77-nodesc</styleUrl>
        <Polygon>
          <outerBoundaryIs>
            <LinearRing>
              <tessellate>1</tessellate>
              <coordinates>
                4.8902553,45.7441741,0
                4.8901517,45.7439075,0
                4.8902885,45.7433666,0
                4.8901705,45.7430727,0
                4.8911164,45.7430541,0
                4.8910896,45.7435539,0
                4.8910896,45.7440537,0
                4.8902553,45.7441741,0
              </coordinates>
            </LinearRing>
          </outerBoundaryIs>
        </Polygon>
      </Placemark>
      <Placemark>
        <name>232</name>
        <styleUrl>#poly-000000-1200-77-nodesc</styleUrl>
        <Polygon>
          <outerBoundaryIs>
            <LinearRing>
              <tessellate>1</tessellate>
              <coordinates>
                4.8901571,45.7430222,0
                4.8903931,45.7419252,0
                4.8913138,45.7419918,0
                4.8911271,45.7429904,0
                4.8901571,45.7430222,0
              </coordinates>
            </LinearRing>
          </outerBoundaryIs>
        </Polygon>
      </Placemark>
      <Placemark>
        <name>233</name>
        <styleUrl>#poly-000000-1200-77-nodesc</styleUrl>
        <Polygon>
          <outerBoundaryIs>
            <LinearRing>
              <tessellate>1</tessellate>
              <coordinates>
                4.8911673,45.7440443,0
                4.8911942,45.7430503,0
                4.892428,45.7430285,0
                4.8924817,45.7438839,0
                4.8911673,45.7440443,0
              </coordinates>
            </LinearRing>
          </outerBoundaryIs>
        </Polygon>
      </Placemark>
      <Placemark>
        <name>234</name>
        <styleUrl>#poly-000000-1200-77-nodesc</styleUrl>
        <Polygon>
          <outerBoundaryIs>
            <LinearRing>
              <tessellate>1</tessellate>
              <coordinates>
                4.8912049,45.7429942,0
                4.8913996,45.7419899,0
                4.8923341,45.7420636,0
                4.8924039,45.7429761,0
                4.8912049,45.7429942,0
              </coordinates>
            </LinearRing>
          </outerBoundaryIs>
        </Polygon>
      </Placemark>
      <Placemark>
        <name>235</name>
        <styleUrl>#poly-000000-1200-77-nodesc</styleUrl>
        <Polygon>
          <outerBoundaryIs>
            <LinearRing>
              <tessellate>1</tessellate>
              <coordinates>
                4.8925675,45.7438775,0
                4.8925381,45.7434676,0
                4.8927767,45.7434712,0
                4.893415,45.7434263,0
                4.8937571,45.7434001,0
                4.8941956,45.7433477,0
                4.8943109,45.7433084,0
                4.894386,45.7434376,0
                4.8939446,45.7437642,0
                4.8937799,45.7437052,0
                4.8925675,45.7438775,0
              </coordinates>
            </LinearRing>
          </outerBoundaryIs>
        </Polygon>
      </Placemark>
      <Placemark>
        <name>236</name>
        <styleUrl>#poly-000000-1200-77-nodesc</styleUrl>
        <Polygon>
          <outerBoundaryIs>
            <LinearRing>
              <tessellate>1</tessellate>
              <coordinates>
                4.8925299,45.7434189,0
                4.8925032,45.7430266,0
                4.894134,45.7430014,0
                4.8942841,45.7432598,0
                4.8941943,45.7432888,0
                4.8940535,45.7433122,0
                4.8934661,45.7433721,0
                4.892825,45.7434114,0
                4.8925299,45.7434189,0
              </coordinates>
            </LinearRing>
          </outerBoundaryIs>
        </Polygon>
      </Placemark>
      <Placemark>
        <name>237</name>
        <styleUrl>#poly-000000-1200-77-nodesc</styleUrl>
        <Polygon>
          <outerBoundaryIs>
            <LinearRing>
              <tessellate>1</tessellate>
              <coordinates>
                4.8924978,45.7429715,0
                4.8924092,45.7420674,0
                4.8936524,45.7421432,0
                4.893753,45.7422228,0
                4.8941245,45.7429238,0
                4.894083,45.7429546,0
                4.8932555,45.7429621,0
                4.8924978,45.7429715,0
              </coordinates>
            </LinearRing>
          </outerBoundaryIs>
        </Polygon>
      </Placemark>
      <Placemark>
        <name>238</name>
        <styleUrl>#poly-000000-1200-77-nodesc</styleUrl>
        <Polygon>
          <outerBoundaryIs>
            <LinearRing>
              <tessellate>1</tessellate>
              <coordinates>
                4.8739863,45.7505916,0
                4.8739005,45.7504081,0
                4.8756117,45.7497905,0
                4.8748044,45.750206,0
                4.8739863,45.7505916,0
              </coordinates>
            </LinearRing>
          </outerBoundaryIs>
        </Polygon>
      </Placemark>
    </Folder>
  </Document>
</kml>
