<?xml version="1.0" encoding="UTF-8"?>
<kml xmlns="http://www.opengis.net/kml/2.2">
  <Document>
    <name>Secteur DL - rayé</name>
    <description/>
    <Style id="poly-000000-10900-77-nodesc-normal">
      <LineStyle>
        <color>ff000000</color>
        <width>10.9</width>
      </LineStyle>
      <PolyStyle>
        <color>4d000000</color>
        <fill>1</fill>
        <outline>1</outline>
      </PolyStyle>
      <BalloonStyle>
        <text><![CDATA[<h3>$[name]</h3>]]></text>
      </BalloonStyle>
    </Style>
    <Style id="poly-000000-10900-77-nodesc-highlight">
      <LineStyle>
        <color>ff000000</color>
        <width>16.35</width>
      </LineStyle>
      <PolyStyle>
        <color>4d000000</color>
        <fill>1</fill>
        <outline>1</outline>
      </PolyStyle>
      <BalloonStyle>
        <text><![CDATA[<h3>$[name]</h3>]]></text>
      </BalloonStyle>
    </Style>
    <StyleMap id="poly-000000-10900-77-nodesc">
      <Pair>
        <key>normal</key>
        <styleUrl>#poly-000000-10900-77-nodesc-normal</styleUrl>
      </Pair>
      <Pair>
        <key>highlight</key>
        <styleUrl>#poly-000000-10900-77-nodesc-highlight</styleUrl>
      </Pair>
    </StyleMap>
    <Style id="poly-000000-11000-77-nodesc-normal">
      <LineStyle>
        <color>ff000000</color>
        <width>11</width>
      </LineStyle>
      <PolyStyle>
        <color>4d000000</color>
        <fill>1</fill>
        <outline>1</outline>
      </PolyStyle>
      <BalloonStyle>
        <text><![CDATA[<h3>$[name]</h3>]]></text>
      </BalloonStyle>
    </Style>
    <Style id="poly-000000-11000-77-nodesc-highlight">
      <LineStyle>
        <color>ff000000</color>
        <width>16.5</width>
      </LineStyle>
      <PolyStyle>
        <color>4d000000</color>
        <fill>1</fill>
        <outline>1</outline>
      </PolyStyle>
      <BalloonStyle>
        <text><![CDATA[<h3>$[name]</h3>]]></text>
      </BalloonStyle>
    </Style>
    <StyleMap id="poly-000000-11000-77-nodesc">
      <Pair>
        <key>normal</key>
        <styleUrl>#poly-000000-11000-77-nodesc-normal</styleUrl>
      </Pair>
      <Pair>
        <key>highlight</key>
        <styleUrl>#poly-000000-11000-77-nodesc-highlight</styleUrl>
      </Pair>
    </StyleMap>
    <Style id="poly-000000-11200-77-nodesc-normal">
      <LineStyle>
        <color>ff000000</color>
        <width>11.2</width>
      </LineStyle>
      <PolyStyle>
        <color>4d000000</color>
        <fill>1</fill>
        <outline>1</outline>
      </PolyStyle>
      <BalloonStyle>
        <text><![CDATA[<h3>$[name]</h3>]]></text>
      </BalloonStyle>
    </Style>
    <Style id="poly-000000-11200-77-nodesc-highlight">
      <LineStyle>
        <color>ff000000</color>
        <width>16.8</width>
      </LineStyle>
      <PolyStyle>
        <color>4d000000</color>
        <fill>1</fill>
        <outline>1</outline>
      </PolyStyle>
      <BalloonStyle>
        <text><![CDATA[<h3>$[name]</h3>]]></text>
      </BalloonStyle>
    </Style>
    <StyleMap id="poly-000000-11200-77-nodesc">
      <Pair>
        <key>normal</key>
        <styleUrl>#poly-000000-11200-77-nodesc-normal</styleUrl>
      </Pair>
      <Pair>
        <key>highlight</key>
        <styleUrl>#poly-000000-11200-77-nodesc-highlight</styleUrl>
      </Pair>
    </StyleMap>
    <Style id="poly-000000-11300-77-nodesc-normal">
      <LineStyle>
        <color>ff000000</color>
        <width>11.3</width>
      </LineStyle>
      <PolyStyle>
        <color>4d000000</color>
        <fill>1</fill>
        <outline>1</outline>
      </PolyStyle>
      <BalloonStyle>
        <text><![CDATA[<h3>$[name]</h3>]]></text>
      </BalloonStyle>
    </Style>
    <Style id="poly-000000-11300-77-nodesc-highlight">
      <LineStyle>
        <color>ff000000</color>
        <width>16.95</width>
      </LineStyle>
      <PolyStyle>
        <color>4d000000</color>
        <fill>1</fill>
        <outline>1</outline>
      </PolyStyle>
      <BalloonStyle>
        <text><![CDATA[<h3>$[name]</h3>]]></text>
      </BalloonStyle>
    </Style>
    <StyleMap id="poly-000000-11300-77-nodesc">
      <Pair>
        <key>normal</key>
        <styleUrl>#poly-000000-11300-77-nodesc-normal</styleUrl>
      </Pair>
      <Pair>
        <key>highlight</key>
        <styleUrl>#poly-000000-11300-77-nodesc-highlight</styleUrl>
      </Pair>
    </StyleMap>
    <Style id="poly-000000-12000-77-nodesc-normal">
      <LineStyle>
        <color>ff000000</color>
        <width>12</width>
      </LineStyle>
      <PolyStyle>
        <color>4d000000</color>
        <fill>1</fill>
        <outline>1</outline>
      </PolyStyle>
      <BalloonStyle>
        <text><![CDATA[<h3>$[name]</h3>]]></text>
      </BalloonStyle>
    </Style>
    <Style id="poly-000000-12000-77-nodesc-highlight">
      <LineStyle>
        <color>ff000000</color>
        <width>18</width>
      </LineStyle>
      <PolyStyle>
        <color>4d000000</color>
        <fill>1</fill>
        <outline>1</outline>
      </PolyStyle>
      <BalloonStyle>
        <text><![CDATA[<h3>$[name]</h3>]]></text>
      </BalloonStyle>
    </Style>
    <StyleMap id="poly-000000-12000-77-nodesc">
      <Pair>
        <key>normal</key>
        <styleUrl>#poly-000000-12000-77-nodesc-normal</styleUrl>
      </Pair>
      <Pair>
        <key>highlight</key>
        <styleUrl>#poly-000000-12000-77-nodesc-highlight</styleUrl>
      </Pair>
    </StyleMap>
    <Style id="poly-01579B-11000-77-nodesc-normal">
      <LineStyle>
        <color>ff9b5701</color>
        <width>11</width>
      </LineStyle>
      <PolyStyle>
        <color>4d9b5701</color>
        <fill>1</fill>
        <outline>1</outline>
      </PolyStyle>
      <BalloonStyle>
        <text><![CDATA[<h3>$[name]</h3>]]></text>
      </BalloonStyle>
    </Style>
    <Style id="poly-01579B-11000-77-nodesc-highlight">
      <LineStyle>
        <color>ff9b5701</color>
        <width>16.5</width>
      </LineStyle>
      <PolyStyle>
        <color>4d9b5701</color>
        <fill>1</fill>
        <outline>1</outline>
      </PolyStyle>
      <BalloonStyle>
        <text><![CDATA[<h3>$[name]</h3>]]></text>
      </BalloonStyle>
    </Style>
    <StyleMap id="poly-01579B-11000-77-nodesc">
      <Pair>
        <key>normal</key>
        <styleUrl>#poly-01579B-11000-77-nodesc-normal</styleUrl>
      </Pair>
      <Pair>
        <key>highlight</key>
        <styleUrl>#poly-01579B-11000-77-nodesc-highlight</styleUrl>
      </Pair>
    </StyleMap>
    <Style id="poly-01579B-11100-77-nodesc-normal">
      <LineStyle>
        <color>ff9b5701</color>
        <width>11.1</width>
      </LineStyle>
      <PolyStyle>
        <color>4d9b5701</color>
        <fill>1</fill>
        <outline>1</outline>
      </PolyStyle>
      <BalloonStyle>
        <text><![CDATA[<h3>$[name]</h3>]]></text>
      </BalloonStyle>
    </Style>
    <Style id="poly-01579B-11100-77-nodesc-highlight">
      <LineStyle>
        <color>ff9b5701</color>
        <width>16.65</width>
      </LineStyle>
      <PolyStyle>
        <color>4d9b5701</color>
        <fill>1</fill>
        <outline>1</outline>
      </PolyStyle>
      <BalloonStyle>
        <text><![CDATA[<h3>$[name]</h3>]]></text>
      </BalloonStyle>
    </Style>
    <StyleMap id="poly-01579B-11100-77-nodesc">
      <Pair>
        <key>normal</key>
        <styleUrl>#poly-01579B-11100-77-nodesc-normal</styleUrl>
      </Pair>
      <Pair>
        <key>highlight</key>
        <styleUrl>#poly-01579B-11100-77-nodesc-highlight</styleUrl>
      </Pair>
    </StyleMap>
    <Style id="poly-097138-11300-77-nodesc-normal">
      <LineStyle>
        <color>ff387109</color>
        <width>11.3</width>
      </LineStyle>
      <PolyStyle>
        <color>4d387109</color>
        <fill>1</fill>
        <outline>1</outline>
      </PolyStyle>
      <BalloonStyle>
        <text><![CDATA[<h3>$[name]</h3>]]></text>
      </BalloonStyle>
    </Style>
    <Style id="poly-097138-11300-77-nodesc-highlight">
      <LineStyle>
        <color>ff387109</color>
        <width>16.95</width>
      </LineStyle>
      <PolyStyle>
        <color>4d387109</color>
        <fill>1</fill>
        <outline>1</outline>
      </PolyStyle>
      <BalloonStyle>
        <text><![CDATA[<h3>$[name]</h3>]]></text>
      </BalloonStyle>
    </Style>
    <StyleMap id="poly-097138-11300-77-nodesc">
      <Pair>
        <key>normal</key>
        <styleUrl>#poly-097138-11300-77-nodesc-normal</styleUrl>
      </Pair>
      <Pair>
        <key>highlight</key>
        <styleUrl>#poly-097138-11300-77-nodesc-highlight</styleUrl>
      </Pair>
    </StyleMap>
    <Style id="poly-097138-11400-77-nodesc-normal">
      <LineStyle>
        <color>ff387109</color>
        <width>11.4</width>
      </LineStyle>
      <PolyStyle>
        <color>4d387109</color>
        <fill>1</fill>
        <outline>1</outline>
      </PolyStyle>
      <BalloonStyle>
        <text><![CDATA[<h3>$[name]</h3>]]></text>
      </BalloonStyle>
    </Style>
    <Style id="poly-097138-11400-77-nodesc-highlight">
      <LineStyle>
        <color>ff387109</color>
        <width>17.1</width>
      </LineStyle>
      <PolyStyle>
        <color>4d387109</color>
        <fill>1</fill>
        <outline>1</outline>
      </PolyStyle>
      <BalloonStyle>
        <text><![CDATA[<h3>$[name]</h3>]]></text>
      </BalloonStyle>
    </Style>
    <StyleMap id="poly-097138-11400-77-nodesc">
      <Pair>
        <key>normal</key>
        <styleUrl>#poly-097138-11400-77-nodesc-normal</styleUrl>
      </Pair>
      <Pair>
        <key>highlight</key>
        <styleUrl>#poly-097138-11400-77-nodesc-highlight</styleUrl>
      </Pair>
    </StyleMap>
    <Style id="poly-558B2F-11100-77-nodesc-normal">
      <LineStyle>
        <color>ff2f8b55</color>
        <width>11.1</width>
      </LineStyle>
      <PolyStyle>
        <color>4d2f8b55</color>
        <fill>1</fill>
        <outline>1</outline>
      </PolyStyle>
      <BalloonStyle>
        <text><![CDATA[<h3>$[name]</h3>]]></text>
      </BalloonStyle>
    </Style>
    <Style id="poly-558B2F-11100-77-nodesc-highlight">
      <LineStyle>
        <color>ff2f8b55</color>
        <width>16.65</width>
      </LineStyle>
      <PolyStyle>
        <color>4d2f8b55</color>
        <fill>1</fill>
        <outline>1</outline>
      </PolyStyle>
      <BalloonStyle>
        <text><![CDATA[<h3>$[name]</h3>]]></text>
      </BalloonStyle>
    </Style>
    <StyleMap id="poly-558B2F-11100-77-nodesc">
      <Pair>
        <key>normal</key>
        <styleUrl>#poly-558B2F-11100-77-nodesc-normal</styleUrl>
      </Pair>
      <Pair>
        <key>highlight</key>
        <styleUrl>#poly-558B2F-11100-77-nodesc-highlight</styleUrl>
      </Pair>
    </StyleMap>
    <Style id="poly-558B2F-11200-77-nodesc-normal">
      <LineStyle>
        <color>ff2f8b55</color>
        <width>11.2</width>
      </LineStyle>
      <PolyStyle>
        <color>4d2f8b55</color>
        <fill>1</fill>
        <outline>1</outline>
      </PolyStyle>
      <BalloonStyle>
        <text><![CDATA[<h3>$[name]</h3>]]></text>
      </BalloonStyle>
    </Style>
    <Style id="poly-558B2F-11200-77-nodesc-highlight">
      <LineStyle>
        <color>ff2f8b55</color>
        <width>16.8</width>
      </LineStyle>
      <PolyStyle>
        <color>4d2f8b55</color>
        <fill>1</fill>
        <outline>1</outline>
      </PolyStyle>
      <BalloonStyle>
        <text><![CDATA[<h3>$[name]</h3>]]></text>
      </BalloonStyle>
    </Style>
    <StyleMap id="poly-558B2F-11200-77-nodesc">
      <Pair>
        <key>normal</key>
        <styleUrl>#poly-558B2F-11200-77-nodesc-normal</styleUrl>
      </Pair>
      <Pair>
        <key>highlight</key>
        <styleUrl>#poly-558B2F-11200-77-nodesc-highlight</styleUrl>
      </Pair>
    </StyleMap>
    <Style id="poly-673AB7-11100-77-nodesc-normal">
      <LineStyle>
        <color>ffb73a67</color>
        <width>11.1</width>
      </LineStyle>
      <PolyStyle>
        <color>4db73a67</color>
        <fill>1</fill>
        <outline>1</outline>
      </PolyStyle>
      <BalloonStyle>
        <text><![CDATA[<h3>$[name]</h3>]]></text>
      </BalloonStyle>
    </Style>
    <Style id="poly-673AB7-11100-77-nodesc-highlight">
      <LineStyle>
        <color>ffb73a67</color>
        <width>16.65</width>
      </LineStyle>
      <PolyStyle>
        <color>4db73a67</color>
        <fill>1</fill>
        <outline>1</outline>
      </PolyStyle>
      <BalloonStyle>
        <text><![CDATA[<h3>$[name]</h3>]]></text>
      </BalloonStyle>
    </Style>
    <StyleMap id="poly-673AB7-11100-77-nodesc">
      <Pair>
        <key>normal</key>
        <styleUrl>#poly-673AB7-11100-77-nodesc-normal</styleUrl>
      </Pair>
      <Pair>
        <key>highlight</key>
        <styleUrl>#poly-673AB7-11100-77-nodesc-highlight</styleUrl>
      </Pair>
    </StyleMap>
    <Style id="poly-673AB7-11200-77-nodesc-normal">
      <LineStyle>
        <color>ffb73a67</color>
        <width>11.2</width>
      </LineStyle>
      <PolyStyle>
        <color>4db73a67</color>
        <fill>1</fill>
        <outline>1</outline>
      </PolyStyle>
      <BalloonStyle>
        <text><![CDATA[<h3>$[name]</h3>]]></text>
      </BalloonStyle>
    </Style>
    <Style id="poly-673AB7-11200-77-nodesc-highlight">
      <LineStyle>
        <color>ffb73a67</color>
        <width>16.8</width>
      </LineStyle>
      <PolyStyle>
        <color>4db73a67</color>
        <fill>1</fill>
        <outline>1</outline>
      </PolyStyle>
      <BalloonStyle>
        <text><![CDATA[<h3>$[name]</h3>]]></text>
      </BalloonStyle>
    </Style>
    <StyleMap id="poly-673AB7-11200-77-nodesc">
      <Pair>
        <key>normal</key>
        <styleUrl>#poly-673AB7-11200-77-nodesc-normal</styleUrl>
      </Pair>
      <Pair>
        <key>highlight</key>
        <styleUrl>#poly-673AB7-11200-77-nodesc-highlight</styleUrl>
      </Pair>
    </StyleMap>
    <Style id="poly-673AB7-11300-77-nodesc-normal">
      <LineStyle>
        <color>ffb73a67</color>
        <width>11.3</width>
      </LineStyle>
      <PolyStyle>
        <color>4db73a67</color>
        <fill>1</fill>
        <outline>1</outline>
      </PolyStyle>
      <BalloonStyle>
        <text><![CDATA[<h3>$[name]</h3>]]></text>
      </BalloonStyle>
    </Style>
    <Style id="poly-673AB7-11300-77-nodesc-highlight">
      <LineStyle>
        <color>ffb73a67</color>
        <width>16.95</width>
      </LineStyle>
      <PolyStyle>
        <color>4db73a67</color>
        <fill>1</fill>
        <outline>1</outline>
      </PolyStyle>
      <BalloonStyle>
        <text><![CDATA[<h3>$[name]</h3>]]></text>
      </BalloonStyle>
    </Style>
    <StyleMap id="poly-673AB7-11300-77-nodesc">
      <Pair>
        <key>normal</key>
        <styleUrl>#poly-673AB7-11300-77-nodesc-normal</styleUrl>
      </Pair>
      <Pair>
        <key>highlight</key>
        <styleUrl>#poly-673AB7-11300-77-nodesc-highlight</styleUrl>
      </Pair>
    </StyleMap>
    <Style id="poly-673AB7-9500-105-nodesc-normal">
      <LineStyle>
        <color>ffb73a67</color>
        <width>9.5</width>
      </LineStyle>
      <PolyStyle>
        <color>69b73a67</color>
        <fill>1</fill>
        <outline>1</outline>
      </PolyStyle>
      <BalloonStyle>
        <text><![CDATA[<h3>$[name]</h3>]]></text>
      </BalloonStyle>
    </Style>
    <Style id="poly-673AB7-9500-105-nodesc-highlight">
      <LineStyle>
        <color>ffb73a67</color>
        <width>14.25</width>
      </LineStyle>
      <PolyStyle>
        <color>69b73a67</color>
        <fill>1</fill>
        <outline>1</outline>
      </PolyStyle>
      <BalloonStyle>
        <text><![CDATA[<h3>$[name]</h3>]]></text>
      </BalloonStyle>
    </Style>
    <StyleMap id="poly-673AB7-9500-105-nodesc">
      <Pair>
        <key>normal</key>
        <styleUrl>#poly-673AB7-9500-105-nodesc-normal</styleUrl>
      </Pair>
      <Pair>
        <key>highlight</key>
        <styleUrl>#poly-673AB7-9500-105-nodesc-highlight</styleUrl>
      </Pair>
    </StyleMap>
    <Style id="poly-E65100-11000-77-nodesc-normal">
      <LineStyle>
        <color>ff0051e6</color>
        <width>11</width>
      </LineStyle>
      <PolyStyle>
        <color>4d0051e6</color>
        <fill>1</fill>
        <outline>1</outline>
      </PolyStyle>
      <BalloonStyle>
        <text><![CDATA[<h3>$[name]</h3>]]></text>
      </BalloonStyle>
    </Style>
    <Style id="poly-E65100-11000-77-nodesc-highlight">
      <LineStyle>
        <color>ff0051e6</color>
        <width>16.5</width>
      </LineStyle>
      <PolyStyle>
        <color>4d0051e6</color>
        <fill>1</fill>
        <outline>1</outline>
      </PolyStyle>
      <BalloonStyle>
        <text><![CDATA[<h3>$[name]</h3>]]></text>
      </BalloonStyle>
    </Style>
    <StyleMap id="poly-E65100-11000-77-nodesc">
      <Pair>
        <key>normal</key>
        <styleUrl>#poly-E65100-11000-77-nodesc-normal</styleUrl>
      </Pair>
      <Pair>
        <key>highlight</key>
        <styleUrl>#poly-E65100-11000-77-nodesc-highlight</styleUrl>
      </Pair>
    </StyleMap>
    <Style id="poly-E65100-11100-77-nodesc-normal">
      <LineStyle>
        <color>ff0051e6</color>
        <width>11.1</width>
      </LineStyle>
      <PolyStyle>
        <color>4d0051e6</color>
        <fill>1</fill>
        <outline>1</outline>
      </PolyStyle>
      <BalloonStyle>
        <text><![CDATA[<h3>$[name]</h3>]]></text>
      </BalloonStyle>
    </Style>
    <Style id="poly-E65100-11100-77-nodesc-highlight">
      <LineStyle>
        <color>ff0051e6</color>
        <width>16.65</width>
      </LineStyle>
      <PolyStyle>
        <color>4d0051e6</color>
        <fill>1</fill>
        <outline>1</outline>
      </PolyStyle>
      <BalloonStyle>
        <text><![CDATA[<h3>$[name]</h3>]]></text>
      </BalloonStyle>
    </Style>
    <StyleMap id="poly-E65100-11100-77-nodesc">
      <Pair>
        <key>normal</key>
        <styleUrl>#poly-E65100-11100-77-nodesc-normal</styleUrl>
      </Pair>
      <Pair>
        <key>highlight</key>
        <styleUrl>#poly-E65100-11100-77-nodesc-highlight</styleUrl>
      </Pair>
    </StyleMap>
    <Style id="poly-F48FB1-10900-77-nodesc-normal">
      <LineStyle>
        <color>ffb18ff4</color>
        <width>10.9</width>
      </LineStyle>
      <PolyStyle>
        <color>4db18ff4</color>
        <fill>1</fill>
        <outline>1</outline>
      </PolyStyle>
      <BalloonStyle>
        <text><![CDATA[<h3>$[name]</h3>]]></text>
      </BalloonStyle>
    </Style>
    <Style id="poly-F48FB1-10900-77-nodesc-highlight">
      <LineStyle>
        <color>ffb18ff4</color>
        <width>16.35</width>
      </LineStyle>
      <PolyStyle>
        <color>4db18ff4</color>
        <fill>1</fill>
        <outline>1</outline>
      </PolyStyle>
      <BalloonStyle>
        <text><![CDATA[<h3>$[name]</h3>]]></text>
      </BalloonStyle>
    </Style>
    <StyleMap id="poly-F48FB1-10900-77-nodesc">
      <Pair>
        <key>normal</key>
        <styleUrl>#poly-F48FB1-10900-77-nodesc-normal</styleUrl>
      </Pair>
      <Pair>
        <key>highlight</key>
        <styleUrl>#poly-F48FB1-10900-77-nodesc-highlight</styleUrl>
      </Pair>
    </StyleMap>
    <Style id="poly-F48FB1-11000-77-nodesc-normal">
      <LineStyle>
        <color>ffb18ff4</color>
        <width>11</width>
      </LineStyle>
      <PolyStyle>
        <color>4db18ff4</color>
        <fill>1</fill>
        <outline>1</outline>
      </PolyStyle>
      <BalloonStyle>
        <text><![CDATA[<h3>$[name]</h3>]]></text>
      </BalloonStyle>
    </Style>
    <Style id="poly-F48FB1-11000-77-nodesc-highlight">
      <LineStyle>
        <color>ffb18ff4</color>
        <width>16.5</width>
      </LineStyle>
      <PolyStyle>
        <color>4db18ff4</color>
        <fill>1</fill>
        <outline>1</outline>
      </PolyStyle>
      <BalloonStyle>
        <text><![CDATA[<h3>$[name]</h3>]]></text>
      </BalloonStyle>
    </Style>
    <StyleMap id="poly-F48FB1-11000-77-nodesc">
      <Pair>
        <key>normal</key>
        <styleUrl>#poly-F48FB1-11000-77-nodesc-normal</styleUrl>
      </Pair>
      <Pair>
        <key>highlight</key>
        <styleUrl>#poly-F48FB1-11000-77-nodesc-highlight</styleUrl>
      </Pair>
    </StyleMap>
    <Style id="poly-F48FB1-11200-77-nodesc-normal">
      <LineStyle>
        <color>ffb18ff4</color>
        <width>11.2</width>
      </LineStyle>
      <PolyStyle>
        <color>4db18ff4</color>
        <fill>1</fill>
        <outline>1</outline>
      </PolyStyle>
      <BalloonStyle>
        <text><![CDATA[<h3>$[name]</h3>]]></text>
      </BalloonStyle>
    </Style>
    <Style id="poly-F48FB1-11200-77-nodesc-highlight">
      <LineStyle>
        <color>ffb18ff4</color>
        <width>16.8</width>
      </LineStyle>
      <PolyStyle>
        <color>4db18ff4</color>
        <fill>1</fill>
        <outline>1</outline>
      </PolyStyle>
      <BalloonStyle>
        <text><![CDATA[<h3>$[name]</h3>]]></text>
      </BalloonStyle>
    </Style>
    <StyleMap id="poly-F48FB1-11200-77-nodesc">
      <Pair>
        <key>normal</key>
        <styleUrl>#poly-F48FB1-11200-77-nodesc-normal</styleUrl>
      </Pair>
      <Pair>
        <key>highlight</key>
        <styleUrl>#poly-F48FB1-11200-77-nodesc-highlight</styleUrl>
      </Pair>
    </StyleMap>
    <Style id="poly-F9A825-11100-77-nodesc-normal">
      <LineStyle>
        <color>ff25a8f9</color>
        <width>11.1</width>
      </LineStyle>
      <PolyStyle>
        <color>4d25a8f9</color>
        <fill>1</fill>
        <outline>1</outline>
      </PolyStyle>
      <BalloonStyle>
        <text><![CDATA[<h3>$[name]</h3>]]></text>
      </BalloonStyle>
    </Style>
    <Style id="poly-F9A825-11100-77-nodesc-highlight">
      <LineStyle>
        <color>ff25a8f9</color>
        <width>16.65</width>
      </LineStyle>
      <PolyStyle>
        <color>4d25a8f9</color>
        <fill>1</fill>
        <outline>1</outline>
      </PolyStyle>
      <BalloonStyle>
        <text><![CDATA[<h3>$[name]</h3>]]></text>
      </BalloonStyle>
    </Style>
    <StyleMap id="poly-F9A825-11100-77-nodesc">
      <Pair>
        <key>normal</key>
        <styleUrl>#poly-F9A825-11100-77-nodesc-normal</styleUrl>
      </Pair>
      <Pair>
        <key>highlight</key>
        <styleUrl>#poly-F9A825-11100-77-nodesc-highlight</styleUrl>
      </Pair>
    </StyleMap>
    <Style id="poly-F9A825-11300-77-nodesc-normal">
      <LineStyle>
        <color>ff25a8f9</color>
        <width>11.3</width>
      </LineStyle>
      <PolyStyle>
        <color>4d25a8f9</color>
        <fill>1</fill>
        <outline>1</outline>
      </PolyStyle>
      <BalloonStyle>
        <text><![CDATA[<h3>$[name]</h3>]]></text>
      </BalloonStyle>
    </Style>
    <Style id="poly-F9A825-11300-77-nodesc-highlight">
      <LineStyle>
        <color>ff25a8f9</color>
        <width>16.95</width>
      </LineStyle>
      <PolyStyle>
        <color>4d25a8f9</color>
        <fill>1</fill>
        <outline>1</outline>
      </PolyStyle>
      <BalloonStyle>
        <text><![CDATA[<h3>$[name]</h3>]]></text>
      </BalloonStyle>
    </Style>
    <StyleMap id="poly-F9A825-11300-77-nodesc">
      <Pair>
        <key>normal</key>
        <styleUrl>#poly-F9A825-11300-77-nodesc-normal</styleUrl>
      </Pair>
      <Pair>
        <key>highlight</key>
        <styleUrl>#poly-F9A825-11300-77-nodesc-highlight</styleUrl>
      </Pair>
    </StyleMap>
    <Style id="poly-FFD600-10900-77-nodesc-normal">
      <LineStyle>
        <color>ff00d6ff</color>
        <width>10.9</width>
      </LineStyle>
      <PolyStyle>
        <color>4d00d6ff</color>
        <fill>1</fill>
        <outline>1</outline>
      </PolyStyle>
      <BalloonStyle>
        <text><![CDATA[<h3>$[name]</h3>]]></text>
      </BalloonStyle>
    </Style>
    <Style id="poly-FFD600-10900-77-nodesc-highlight">
      <LineStyle>
        <color>ff00d6ff</color>
        <width>16.35</width>
      </LineStyle>
      <PolyStyle>
        <color>4d00d6ff</color>
        <fill>1</fill>
        <outline>1</outline>
      </PolyStyle>
      <BalloonStyle>
        <text><![CDATA[<h3>$[name]</h3>]]></text>
      </BalloonStyle>
    </Style>
    <StyleMap id="poly-FFD600-10900-77-nodesc">
      <Pair>
        <key>normal</key>
        <styleUrl>#poly-FFD600-10900-77-nodesc-normal</styleUrl>
      </Pair>
      <Pair>
        <key>highlight</key>
        <styleUrl>#poly-FFD600-10900-77-nodesc-highlight</styleUrl>
      </Pair>
    </StyleMap>
    <Style id="poly-FFD600-11000-77-nodesc-normal">
      <LineStyle>
        <color>ff00d6ff</color>
        <width>11</width>
      </LineStyle>
      <PolyStyle>
        <color>4d00d6ff</color>
        <fill>1</fill>
        <outline>1</outline>
      </PolyStyle>
      <BalloonStyle>
        <text><![CDATA[<h3>$[name]</h3>]]></text>
      </BalloonStyle>
    </Style>
    <Style id="poly-FFD600-11000-77-nodesc-highlight">
      <LineStyle>
        <color>ff00d6ff</color>
        <width>16.5</width>
      </LineStyle>
      <PolyStyle>
        <color>4d00d6ff</color>
        <fill>1</fill>
        <outline>1</outline>
      </PolyStyle>
      <BalloonStyle>
        <text><![CDATA[<h3>$[name]</h3>]]></text>
      </BalloonStyle>
    </Style>
    <StyleMap id="poly-FFD600-11000-77-nodesc">
      <Pair>
        <key>normal</key>
        <styleUrl>#poly-FFD600-11000-77-nodesc-normal</styleUrl>
      </Pair>
      <Pair>
        <key>highlight</key>
        <styleUrl>#poly-FFD600-11000-77-nodesc-highlight</styleUrl>
      </Pair>
    </StyleMap>
    <Style id="poly-FFD600-11100-77-nodesc-normal">
      <LineStyle>
        <color>ff00d6ff</color>
        <width>11.1</width>
      </LineStyle>
      <PolyStyle>
        <color>4d00d6ff</color>
        <fill>1</fill>
        <outline>1</outline>
      </PolyStyle>
      <BalloonStyle>
        <text><![CDATA[<h3>$[name]</h3>]]></text>
      </BalloonStyle>
    </Style>
    <Style id="poly-FFD600-11100-77-nodesc-highlight">
      <LineStyle>
        <color>ff00d6ff</color>
        <width>16.65</width>
      </LineStyle>
      <PolyStyle>
        <color>4d00d6ff</color>
        <fill>1</fill>
        <outline>1</outline>
      </PolyStyle>
      <BalloonStyle>
        <text><![CDATA[<h3>$[name]</h3>]]></text>
      </BalloonStyle>
    </Style>
    <StyleMap id="poly-FFD600-11100-77-nodesc">
      <Pair>
        <key>normal</key>
        <styleUrl>#poly-FFD600-11100-77-nodesc-normal</styleUrl>
      </Pair>
      <Pair>
        <key>highlight</key>
        <styleUrl>#poly-FFD600-11100-77-nodesc-highlight</styleUrl>
      </Pair>
    </StyleMap>
    <Style id="poly-FFD600-11500-77-nodesc-normal">
      <LineStyle>
        <color>ff00d6ff</color>
        <width>11.5</width>
      </LineStyle>
      <PolyStyle>
        <color>4d00d6ff</color>
        <fill>1</fill>
        <outline>1</outline>
      </PolyStyle>
      <BalloonStyle>
        <text><![CDATA[<h3>$[name]</h3>]]></text>
      </BalloonStyle>
    </Style>
    <Style id="poly-FFD600-11500-77-nodesc-highlight">
      <LineStyle>
        <color>ff00d6ff</color>
        <width>17.25</width>
      </LineStyle>
      <PolyStyle>
        <color>4d00d6ff</color>
        <fill>1</fill>
        <outline>1</outline>
      </PolyStyle>
      <BalloonStyle>
        <text><![CDATA[<h3>$[name]</h3>]]></text>
      </BalloonStyle>
    </Style>
    <StyleMap id="poly-FFD600-11500-77-nodesc">
      <Pair>
        <key>normal</key>
        <styleUrl>#poly-FFD600-11500-77-nodesc-normal</styleUrl>
      </Pair>
      <Pair>
        <key>highlight</key>
        <styleUrl>#poly-FFD600-11500-77-nodesc-highlight</styleUrl>
      </Pair>
    </StyleMap>
    <Style id="poly-FFD600-11600-77-nodesc-normal">
      <LineStyle>
        <color>ff00d6ff</color>
        <width>11.6</width>
      </LineStyle>
      <PolyStyle>
        <color>4d00d6ff</color>
        <fill>1</fill>
        <outline>1</outline>
      </PolyStyle>
      <BalloonStyle>
        <text><![CDATA[<h3>$[name]</h3>]]></text>
      </BalloonStyle>
    </Style>
    <Style id="poly-FFD600-11600-77-nodesc-highlight">
      <LineStyle>
        <color>ff00d6ff</color>
        <width>17.4</width>
      </LineStyle>
      <PolyStyle>
        <color>4d00d6ff</color>
        <fill>1</fill>
        <outline>1</outline>
      </PolyStyle>
      <BalloonStyle>
        <text><![CDATA[<h3>$[name]</h3>]]></text>
      </BalloonStyle>
    </Style>
    <StyleMap id="poly-FFD600-11600-77-nodesc">
      <Pair>
        <key>normal</key>
        <styleUrl>#poly-FFD600-11600-77-nodesc-normal</styleUrl>
      </Pair>
      <Pair>
        <key>highlight</key>
        <styleUrl>#poly-FFD600-11600-77-nodesc-highlight</styleUrl>
      </Pair>
    </StyleMap>
    <Folder>
      <name>Violet Rayé</name>
      <Placemark>
        <name>49</name>
        <styleUrl>#poly-673AB7-9500-105-nodesc</styleUrl>
        <Polygon>
          <outerBoundaryIs>
            <LinearRing>
              <tessellate>1</tessellate>
              <coordinates>
                4.8646144,45.7568822,0
                4.8641262,45.7560925,0
                4.8665348,45.7545729,0
                4.8667923,45.7546028,0
                4.8672376,45.7566876,0
                4.8646144,45.7568822,0
              </coordinates>
            </LinearRing>
          </outerBoundaryIs>
        </Polygon>
      </Placemark>
      <Placemark>
        <name>29</name>
        <styleUrl>#poly-673AB7-11200-77-nodesc</styleUrl>
        <Polygon>
          <outerBoundaryIs>
            <LinearRing>
              <tessellate>1</tessellate>
              <coordinates>
                4.8679107,45.7593089,0
                4.8678732,45.7591218,0
                4.8695147,45.7588935,0
                4.8697292,45.759395,0
                4.8692143,45.7593875,0
                4.8679107,45.7593089,0
              </coordinates>
            </LinearRing>
          </outerBoundaryIs>
        </Polygon>
      </Placemark>
      <Placemark>
        <name>62</name>
        <styleUrl>#poly-673AB7-11100-77-nodesc</styleUrl>
        <Polygon>
          <outerBoundaryIs>
            <LinearRing>
              <tessellate>1</tessellate>
              <coordinates>
                4.8605668,45.7499872,0
                4.8643219,45.7500172,0
                4.8645794,45.7501295,0
                4.8648154,45.7503316,0
                4.8657381,45.7525326,0
                4.8637426,45.7529293,0
                4.8631739,45.7540522,0
                4.8616719,45.7538726,0
                4.8616826,45.7526673,0
                4.8615968,45.7521957,0
                4.8613715,45.7516492,0
                4.8608565,45.7508706,0
                4.8605668,45.7499872,0
              </coordinates>
            </LinearRing>
          </outerBoundaryIs>
        </Polygon>
      </Placemark>
      <Placemark>
        <name>79</name>
        <styleUrl>#poly-673AB7-11100-77-nodesc</styleUrl>
        <Polygon>
          <outerBoundaryIs>
            <LinearRing>
              <tessellate>1</tessellate>
              <coordinates>
                4.8682795,45.7488396,0
                4.8681614,45.7488677,0
                4.867684,45.7479468,0
                4.8682097,45.7478196,0
                4.8682795,45.7488396,0
              </coordinates>
            </LinearRing>
          </outerBoundaryIs>
        </Polygon>
      </Placemark>
      <Placemark>
        <name>53</name>
        <styleUrl>#poly-673AB7-11300-77-nodesc</styleUrl>
        <Polygon>
          <outerBoundaryIs>
            <LinearRing>
              <tessellate>1</tessellate>
              <coordinates>
                4.8727338,45.7560604,0
                4.8727178,45.7553193,0
                4.8761081,45.7557572,0
                4.8761081,45.7558358,0
                4.8727338,45.7560604,0
              </coordinates>
            </LinearRing>
          </outerBoundaryIs>
        </Polygon>
      </Placemark>
      <Placemark>
        <name>31</name>
        <styleUrl>#poly-673AB7-11200-77-nodesc</styleUrl>
        <Polygon>
          <outerBoundaryIs>
            <LinearRing>
              <tessellate>1</tessellate>
              <coordinates>
                4.8751692,45.7584503,0
                4.8749922,45.7580199,0
                4.8764459,45.7577692,0
                4.8765264,45.7581884,0
                4.8751692,45.7584503,0
              </coordinates>
            </LinearRing>
          </outerBoundaryIs>
        </Polygon>
      </Placemark>
    </Folder>
    <Folder>
      <name>Orange Rayé</name>
      <Placemark>
        <name>50</name>
        <styleUrl>#poly-F9A825-11100-77-nodesc</styleUrl>
        <Polygon>
          <outerBoundaryIs>
            <LinearRing>
              <tessellate>1</tessellate>
              <coordinates>
                4.8673758,45.7566712,0
                4.8669198,45.7546164,0
                4.8674616,45.7546875,0
                4.8683253,45.7565888,0
                4.8673758,45.7566712,0
              </coordinates>
            </LinearRing>
          </outerBoundaryIs>
        </Polygon>
      </Placemark>
      <Placemark>
        <name>26</name>
        <styleUrl>#poly-F9A825-11100-77-nodesc</styleUrl>
        <Polygon>
          <outerBoundaryIs>
            <LinearRing>
              <tessellate>1</tessellate>
              <coordinates>
                4.8725441,45.7595331,0
                4.8726139,45.7584814,0
                4.8725924,45.7584028,0
                4.8734829,45.7582755,0
                4.8742393,45.7596042,0
                4.8727533,45.7596117,0
                4.8725441,45.7595331,0
              </coordinates>
            </LinearRing>
          </outerBoundaryIs>
        </Polygon>
      </Placemark>
      <Placemark>
        <name>3A</name>
        <styleUrl>#poly-F9A825-11300-77-nodesc</styleUrl>
        <Polygon>
          <outerBoundaryIs>
            <LinearRing>
              <tessellate>1</tessellate>
              <coordinates>
                4.8638457,45.7629731,0
                4.8669839,45.763673,0
                4.8638099,45.7636288,0
                4.8638457,45.7629731,0
              </coordinates>
            </LinearRing>
          </outerBoundaryIs>
        </Polygon>
      </Placemark>
      <Placemark>
        <name>66</name>
        <styleUrl>#poly-F9A825-11100-77-nodesc</styleUrl>
        <Polygon>
          <outerBoundaryIs>
            <LinearRing>
              <tessellate>1</tessellate>
              <coordinates>
                4.866623,45.7503097,0
                4.8661805,45.7494282,0
                4.8672567,45.7491538,0
                4.8674465,45.7495162,0
                4.8672855,45.7498381,0
                4.8674009,45.750117,0
                4.866623,45.7503097,0
              </coordinates>
            </LinearRing>
          </outerBoundaryIs>
        </Polygon>
      </Placemark>
    </Folder>
    <Folder>
      <name>Rouge Rayé</name>
      <Placemark>
        <name>54</name>
        <styleUrl>#poly-E65100-11000-77-nodesc</styleUrl>
        <Polygon>
          <outerBoundaryIs>
            <LinearRing>
              <tessellate>1</tessellate>
              <coordinates>
                4.8617123,45.7570082,0
                4.861648,45.7539989,0
                4.8631071,45.7541861,0
                4.8630212,45.7545529,0
                4.8633538,45.7544181,0
                4.8656284,45.7549945,0
                4.862399,45.7569483,0
                4.8617123,45.7570082,0
              </coordinates>
            </LinearRing>
          </outerBoundaryIs>
        </Polygon>
      </Placemark>
      <Placemark>
        <name>24</name>
        <styleUrl>#poly-E65100-11100-77-nodesc</styleUrl>
        <Polygon>
          <outerBoundaryIs>
            <LinearRing>
              <tessellate>1</tessellate>
              <coordinates>
                4.8708587,45.7615849,0
                4.8709499,45.7597735,0
                4.8722051,45.7598147,0
                4.8724412,45.7597548,0
                4.8723875,45.7610947,0
                4.871894,45.7611471,0
                4.8718725,45.761686,0
                4.8708587,45.7615849,0
              </coordinates>
            </LinearRing>
          </outerBoundaryIs>
        </Polygon>
      </Placemark>
      <Placemark>
        <name>71</name>
        <styleUrl>#poly-E65100-11100-77-nodesc</styleUrl>
        <Polygon>
          <outerBoundaryIs>
            <LinearRing>
              <tessellate>1</tessellate>
              <coordinates>
                4.8645146,45.7486834,0
                4.8641927,45.7480471,0
                4.8652227,45.7476989,0
                4.8655982,45.7484252,0
                4.8645146,45.7486834,0
              </coordinates>
            </LinearRing>
          </outerBoundaryIs>
        </Polygon>
      </Placemark>
      <Placemark>
        <name>81</name>
        <styleUrl>#poly-E65100-11100-77-nodesc</styleUrl>
        <Polygon>
          <outerBoundaryIs>
            <LinearRing>
              <tessellate>1</tessellate>
              <coordinates>
                4.8682722,45.7477491,0
                4.868165,45.7466822,0
                4.8711904,45.7456377,0
                4.8715177,45.7462329,0
                4.8718181,45.7468693,0
                4.8682722,45.7477491,0
              </coordinates>
            </LinearRing>
          </outerBoundaryIs>
        </Polygon>
      </Placemark>
    </Folder>
    <Folder>
      <name>Bleu Rayé (Jérémy)</name>
      <Placemark>
        <name>59</name>
        <styleUrl>#poly-01579B-11000-77-nodesc</styleUrl>
        <Polygon>
          <outerBoundaryIs>
            <LinearRing>
              <tessellate>1</tessellate>
              <coordinates>
                4.8675976,45.7545888,0
                4.8686168,45.7540424,0
                4.8717067,45.7544765,0
                4.8715458,45.7550754,0
                4.8675976,45.7545888,0
              </coordinates>
            </LinearRing>
          </outerBoundaryIs>
        </Polygon>
      </Placemark>
      <Placemark>
        <name>X</name>
        <styleUrl>#poly-01579B-11100-77-nodesc</styleUrl>
        <Polygon>
          <outerBoundaryIs>
            <LinearRing>
              <tessellate>1</tessellate>
              <coordinates>
                4.868549,45.7622222,0
                4.8683613,45.7613465,0
                4.8707699,45.7616384,0
                4.8707485,45.7624729,0
                4.868549,45.7622222,0
              </coordinates>
            </LinearRing>
          </outerBoundaryIs>
        </Polygon>
      </Placemark>
      <Placemark>
        <name>19</name>
        <styleUrl>#poly-01579B-11100-77-nodesc</styleUrl>
        <Polygon>
          <outerBoundaryIs>
            <LinearRing>
              <tessellate>1</tessellate>
              <coordinates>
                4.8665362,45.7612755,0
                4.8663967,45.7606168,0
                4.8680489,45.7604297,0
                4.8682206,45.7612867,0
                4.8665362,45.7612755,0
              </coordinates>
            </LinearRing>
          </outerBoundaryIs>
        </Polygon>
      </Placemark>
      <Placemark>
        <name>33</name>
        <styleUrl>#poly-01579B-11100-77-nodesc</styleUrl>
        <Polygon>
          <outerBoundaryIs>
            <LinearRing>
              <tessellate>1</tessellate>
              <coordinates>
                4.8735365,45.7581916,0
                4.8732361,45.7573121,0
                4.8746148,45.7571586,0
                4.8748884,45.7579708,0
                4.8735365,45.7581916,0
              </coordinates>
            </LinearRing>
          </outerBoundaryIs>
        </Polygon>
      </Placemark>
      <Placemark>
        <name>68</name>
        <styleUrl>#poly-01579B-11100-77-nodesc</styleUrl>
        <Polygon>
          <outerBoundaryIs>
            <LinearRing>
              <tessellate>1</tessellate>
              <coordinates>
                4.8604982,45.7498976,0
                4.8603748,45.7494559,0
                4.8634701,45.7482955,0
                4.8637168,45.7499275,0
                4.8604982,45.7498976,0
              </coordinates>
            </LinearRing>
          </outerBoundaryIs>
        </Polygon>
      </Placemark>
    </Folder>
    <Folder>
      <name>Vert Rayé</name>
      <Placemark>
        <name>51</name>
        <styleUrl>#poly-558B2F-11100-77-nodesc</styleUrl>
        <Polygon>
          <outerBoundaryIs>
            <LinearRing>
              <tessellate>1</tessellate>
              <coordinates>
                4.8684188,45.7565772,0
                4.867582,45.7546983,0
                4.8706075,45.7550689,0
                4.871042,45.7562815,0
                4.8684188,45.7565772,0
              </coordinates>
            </LinearRing>
          </outerBoundaryIs>
        </Polygon>
      </Placemark>
      <Placemark>
        <name>23</name>
        <styleUrl>#poly-558B2F-11200-77-nodesc</styleUrl>
        <Polygon>
          <outerBoundaryIs>
            <LinearRing>
              <tessellate>1</tessellate>
              <coordinates>
                4.8699933,45.7614731,0
                4.8696714,45.7598862,0
                4.8697144,45.7596841,0
                4.8699397,45.759774,0
                4.8708623,45.7597889,0
                4.8707551,45.7615629,0
                4.8699933,45.7614731,0
              </coordinates>
            </LinearRing>
          </outerBoundaryIs>
        </Polygon>
      </Placemark>
      <Placemark>
        <name>15</name>
        <styleUrl>#poly-558B2F-11100-77-nodesc</styleUrl>
        <Polygon>
          <outerBoundaryIs>
            <LinearRing>
              <tessellate>1</tessellate>
              <coordinates>
                4.8621203,45.7620571,0
                4.8621042,45.7613854,0
                4.8629223,45.7613891,0
                4.8629035,45.7620347,0
                4.8621203,45.7620571,0
              </coordinates>
            </LinearRing>
          </outerBoundaryIs>
        </Polygon>
      </Placemark>
      <Placemark>
        <name>69</name>
        <styleUrl>#poly-097138-11400-77-nodesc</styleUrl>
        <Polygon>
          <outerBoundaryIs>
            <LinearRing>
              <tessellate>1</tessellate>
              <coordinates>
                4.8638057,45.7499283,0
                4.8635536,45.7482738,0
                4.8641329,45.7480791,0
                4.8644548,45.7487155,0
                4.864605,45.7487267,0
                4.8650449,45.7496588,0
                4.8645996,45.7497711,0
                4.8644119,45.7499657,0
                4.8638057,45.7499283,0
              </coordinates>
            </LinearRing>
          </outerBoundaryIs>
        </Polygon>
      </Placemark>
      <Placemark>
        <name>72</name>
        <styleUrl>#poly-097138-11300-77-nodesc</styleUrl>
        <Polygon>
          <outerBoundaryIs>
            <LinearRing>
              <tessellate>1</tessellate>
              <coordinates>
                4.8661491,45.7493706,0
                4.8656556,45.7484572,0
                4.8676082,45.7479706,0
                4.8680481,45.7488802,0
                4.8661491,45.7493706,0
              </coordinates>
            </LinearRing>
          </outerBoundaryIs>
        </Polygon>
      </Placemark>
    </Folder>
    <Folder>
      <name>Jaune Rayé</name>
      <Placemark>
        <name>56</name>
        <styleUrl>#poly-FFD600-10900-77-nodesc</styleUrl>
        <Polygon>
          <outerBoundaryIs>
            <LinearRing>
              <tessellate>1</tessellate>
              <coordinates>
                4.864014,45.7541505,0
                4.8648294,45.7536565,0
                4.8663422,45.753342,0
                4.8671147,45.7540832,0
                4.8664924,45.7544575,0
                4.864014,45.7541505,0
              </coordinates>
            </LinearRing>
          </outerBoundaryIs>
        </Polygon>
      </Placemark>
      <Placemark>
        <name>27</name>
        <styleUrl>#poly-FFD600-11000-77-nodesc</styleUrl>
        <Polygon>
          <outerBoundaryIs>
            <LinearRing>
              <tessellate>1</tessellate>
              <coordinates>
                4.8709598,45.759449,0
                4.8709759,45.7586369,0
                4.8725155,45.7584198,0
                4.8724457,45.7595052,0
                4.872199,45.7594415,0
                4.8709598,45.759449,0
              </coordinates>
            </LinearRing>
          </outerBoundaryIs>
        </Polygon>
      </Placemark>
      <Placemark>
        <name>28</name>
        <styleUrl>#poly-FFD600-11100-77-nodesc</styleUrl>
        <Polygon>
          <outerBoundaryIs>
            <LinearRing>
              <tessellate>1</tessellate>
              <coordinates>
                4.8697885,45.7593642,0
                4.86959,45.7588927,0
                4.8703893,45.7587504,0
                4.8709043,45.7586531,0
                4.8708882,45.7594578,0
                4.8698475,45.7594279,0
                4.8697885,45.7593642,0
              </coordinates>
            </LinearRing>
          </outerBoundaryIs>
        </Polygon>
      </Placemark>
      <Placemark>
        <name>5</name>
        <styleUrl>#poly-FFD600-11600-77-nodesc</styleUrl>
        <Polygon>
          <outerBoundaryIs>
            <LinearRing>
              <tessellate>1</tessellate>
              <coordinates>
                4.8701965,45.7633796,0
                4.8699229,45.763722,0
                4.8688447,45.7637033,0
                4.8687213,45.7631681,0
                4.8695984,45.7632673,0
                4.8701965,45.7633796,0
              </coordinates>
            </LinearRing>
          </outerBoundaryIs>
        </Polygon>
      </Placemark>
      <Placemark>
        <name>70</name>
        <styleUrl>#poly-FFD600-11500-77-nodesc</styleUrl>
        <Polygon>
          <outerBoundaryIs>
            <LinearRing>
              <tessellate>1</tessellate>
              <coordinates>
                4.8651346,45.7496486,0
                4.8647242,45.7488775,0
                4.8646678,45.7487053,0
                4.8655959,45.7484789,0
                4.8656254,45.7485855,0
                4.8660706,45.7494016,0
                4.8651346,45.7496486,0
              </coordinates>
            </LinearRing>
          </outerBoundaryIs>
        </Polygon>
      </Placemark>
    </Folder>
    <Folder>
      <name>Rose Rayé</name>
      <Placemark>
        <name>39</name>
        <styleUrl>#poly-F48FB1-11000-77-nodesc</styleUrl>
        <Polygon>
          <outerBoundaryIs>
            <LinearRing>
              <tessellate>1</tessellate>
              <coordinates>
                4.8684372,45.756666,0
                4.8710872,45.7563629,0
                4.8713822,45.7575231,0
                4.8686249,45.7579423,0
                4.8684372,45.756666,0
              </coordinates>
            </LinearRing>
          </outerBoundaryIs>
        </Polygon>
      </Placemark>
      <Placemark>
        <name>63
</name>
        <styleUrl>#poly-F48FB1-11200-77-nodesc</styleUrl>
        <Polygon>
          <outerBoundaryIs>
            <LinearRing>
              <tessellate>1</tessellate>
              <coordinates>
                4.8659904,45.7525554,0
                4.8658134,45.7524749,0
                4.8654406,45.7515784,0
                4.8685653,45.7512397,0
                4.868686,45.7526078,0
                4.8680664,45.752546,0
                4.8659904,45.7525554,0
              </coordinates>
            </LinearRing>
          </outerBoundaryIs>
        </Polygon>
      </Placemark>
      <Placemark>
        <name>6</name>
        <styleUrl>#poly-F48FB1-10900-77-nodesc</styleUrl>
        <Polygon>
          <outerBoundaryIs>
            <LinearRing>
              <tessellate>1</tessellate>
              <coordinates>
                4.8687124,45.7631206,0
                4.8685515,45.7622748,0
                4.8691738,45.7623515,0
                4.8691979,45.7623945,0
                4.869273,45.7631804,0
                4.8687124,45.7631206,0
              </coordinates>
            </LinearRing>
          </outerBoundaryIs>
        </Polygon>
      </Placemark>
      <Placemark>
        <name>30</name>
        <styleUrl>#poly-F48FB1-11200-77-nodesc</styleUrl>
        <Polygon>
          <outerBoundaryIs>
            <LinearRing>
              <tessellate>1</tessellate>
              <coordinates>
                4.8738207,45.7587157,0
                4.8735552,45.7582479,0
                4.8749097,45.7580177,0
                4.8749767,45.7581375,0
                4.8750814,45.7584706,0
                4.8738207,45.7587157,0
              </coordinates>
            </LinearRing>
          </outerBoundaryIs>
        </Polygon>
      </Placemark>
    </Folder>
    <Folder>
      <name>Gris Rayé</name>
      <Placemark>
        <name>58</name>
        <styleUrl>#poly-000000-11200-77-nodesc</styleUrl>
        <Polygon>
          <outerBoundaryIs>
            <LinearRing>
              <tessellate>1</tessellate>
              <coordinates>
                4.867487,45.7545725,0
                4.86731,45.7542094,0
                4.8673314,45.7541159,0
                4.8695577,45.752862,0
                4.8702497,45.7531352,0
                4.867487,45.7545725,0
              </coordinates>
            </LinearRing>
          </outerBoundaryIs>
        </Polygon>
      </Placemark>
      <Placemark>
        <name>21</name>
        <styleUrl>#poly-000000-11300-77-nodesc</styleUrl>
        <Polygon>
          <outerBoundaryIs>
            <LinearRing>
              <tessellate>1</tessellate>
              <coordinates>
                4.8662534,45.7600132,0
                4.8660925,45.7593358,0
                4.8678064,45.7593882,0
                4.8679003,45.7598542,0
                4.8662534,45.7600132,0
              </coordinates>
            </LinearRing>
          </outerBoundaryIs>
        </Polygon>
      </Placemark>
      <Placemark>
        <name>38</name>
        <styleUrl>#poly-000000-11000-77-nodesc</styleUrl>
        <Polygon>
          <outerBoundaryIs>
            <LinearRing>
              <tessellate>1</tessellate>
              <coordinates>
                4.8713822,45.7575231,0
                4.8711271,45.756357,0
                4.8726613,45.7561661,0
                4.8731227,45.7572627,0
                4.8713822,45.7575231,0
              </coordinates>
            </LinearRing>
          </outerBoundaryIs>
        </Polygon>
      </Placemark>
      <Placemark>
        <name>10</name>
        <styleUrl>#poly-000000-11000-77-nodesc</styleUrl>
        <Polygon>
          <outerBoundaryIs>
            <LinearRing>
              <tessellate>1</tessellate>
              <coordinates>
                4.863843,45.7629065,0
                4.8638752,45.7620644,0
                4.8646155,45.7620719,0
                4.8646584,45.7629139,0
                4.863843,45.7629065,0
              </coordinates>
            </LinearRing>
          </outerBoundaryIs>
        </Polygon>
      </Placemark>
      <Placemark>
        <name>7</name>
        <styleUrl>#poly-000000-10900-77-nodesc</styleUrl>
        <Polygon>
          <outerBoundaryIs>
            <LinearRing>
              <tessellate>1</tessellate>
              <coordinates>
                4.8702127,45.7633279,0
                4.8694134,45.7631932,0
                4.8693195,45.7631988,0
                4.8692524,45.7623661,0
                4.8707491,45.762527,0
                4.8702127,45.7633279,0
              </coordinates>
            </LinearRing>
          </outerBoundaryIs>
        </Polygon>
      </Placemark>
      <Placemark>
        <name>25</name>
        <styleUrl>#poly-000000-12000-77-nodesc</styleUrl>
        <Polygon>
          <outerBoundaryIs>
            <LinearRing>
              <tessellate>1</tessellate>
              <coordinates>
                4.8724572,45.761092,0
                4.8725216,45.7597297,0
                4.8727684,45.759681,0
                4.874265,45.759696,0
                4.8748927,45.7607102,0
                4.8724572,45.761092,0
              </coordinates>
            </LinearRing>
          </outerBoundaryIs>
        </Polygon>
      </Placemark>
    </Folder>
  </Document>
</kml>
