<?xml version="1.0" encoding="UTF-8"?>
<kml xmlns="http://www.opengis.net/kml/2.2">
  <Document>
    <name>Secteur DL - non rayé</name>
    <description/>
    <Style id="poly-000000-1200-77-nodesc-normal">
      <LineStyle>
        <color>ff000000</color>
        <width>1.2</width>
      </LineStyle>
      <PolyStyle>
        <color>4d000000</color>
        <fill>1</fill>
        <outline>1</outline>
      </PolyStyle>
      <BalloonStyle>
        <text><![CDATA[<h3>$[name]</h3>]]></text>
      </BalloonStyle>
    </Style>
    <Style id="poly-000000-1200-77-nodesc-highlight">
      <LineStyle>
        <color>ff000000</color>
        <width>1.8</width>
      </LineStyle>
      <PolyStyle>
        <color>4d000000</color>
        <fill>1</fill>
        <outline>1</outline>
      </PolyStyle>
      <BalloonStyle>
        <text><![CDATA[<h3>$[name]</h3>]]></text>
      </BalloonStyle>
    </Style>
    <StyleMap id="poly-000000-1200-77-nodesc">
      <Pair>
        <key>normal</key>
        <styleUrl>#poly-000000-1200-77-nodesc-normal</styleUrl>
      </Pair>
      <Pair>
        <key>highlight</key>
        <styleUrl>#poly-000000-1200-77-nodesc-highlight</styleUrl>
      </Pair>
    </StyleMap>
    <Style id="poly-01579B-1200-77-nodesc-normal">
      <LineStyle>
        <color>ff9b5701</color>
        <width>1.2</width>
      </LineStyle>
      <PolyStyle>
        <color>4d9b5701</color>
        <fill>1</fill>
        <outline>1</outline>
      </PolyStyle>
      <BalloonStyle>
        <text><![CDATA[<h3>$[name]</h3>]]></text>
      </BalloonStyle>
    </Style>
    <Style id="poly-01579B-1200-77-nodesc-highlight">
      <LineStyle>
        <color>ff9b5701</color>
        <width>1.8</width>
      </LineStyle>
      <PolyStyle>
        <color>4d9b5701</color>
        <fill>1</fill>
        <outline>1</outline>
      </PolyStyle>
      <BalloonStyle>
        <text><![CDATA[<h3>$[name]</h3>]]></text>
      </BalloonStyle>
    </Style>
    <StyleMap id="poly-01579B-1200-77-nodesc">
      <Pair>
        <key>normal</key>
        <styleUrl>#poly-01579B-1200-77-nodesc-normal</styleUrl>
      </Pair>
      <Pair>
        <key>highlight</key>
        <styleUrl>#poly-01579B-1200-77-nodesc-highlight</styleUrl>
      </Pair>
    </StyleMap>
    <Style id="poly-01579B-1401-77-nodesc-normal">
      <LineStyle>
        <color>ff9b5701</color>
        <width>1.401</width>
      </LineStyle>
      <PolyStyle>
        <color>4d9b5701</color>
        <fill>1</fill>
        <outline>1</outline>
      </PolyStyle>
      <BalloonStyle>
        <text><![CDATA[<h3>$[name]</h3>]]></text>
      </BalloonStyle>
    </Style>
    <Style id="poly-01579B-1401-77-nodesc-highlight">
      <LineStyle>
        <color>ff9b5701</color>
        <width>2.1015</width>
      </LineStyle>
      <PolyStyle>
        <color>4d9b5701</color>
        <fill>1</fill>
        <outline>1</outline>
      </PolyStyle>
      <BalloonStyle>
        <text><![CDATA[<h3>$[name]</h3>]]></text>
      </BalloonStyle>
    </Style>
    <StyleMap id="poly-01579B-1401-77-nodesc">
      <Pair>
        <key>normal</key>
        <styleUrl>#poly-01579B-1401-77-nodesc-normal</styleUrl>
      </Pair>
      <Pair>
        <key>highlight</key>
        <styleUrl>#poly-01579B-1401-77-nodesc-highlight</styleUrl>
      </Pair>
    </StyleMap>
    <Style id="poly-097138-1200-77-nodesc-normal">
      <LineStyle>
        <color>ff387109</color>
        <width>1.2</width>
      </LineStyle>
      <PolyStyle>
        <color>4d387109</color>
        <fill>1</fill>
        <outline>1</outline>
      </PolyStyle>
      <BalloonStyle>
        <text><![CDATA[<h3>$[name]</h3>]]></text>
      </BalloonStyle>
    </Style>
    <Style id="poly-097138-1200-77-nodesc-highlight">
      <LineStyle>
        <color>ff387109</color>
        <width>1.8</width>
      </LineStyle>
      <PolyStyle>
        <color>4d387109</color>
        <fill>1</fill>
        <outline>1</outline>
      </PolyStyle>
      <BalloonStyle>
        <text><![CDATA[<h3>$[name]</h3>]]></text>
      </BalloonStyle>
    </Style>
    <StyleMap id="poly-097138-1200-77-nodesc">
      <Pair>
        <key>normal</key>
        <styleUrl>#poly-097138-1200-77-nodesc-normal</styleUrl>
      </Pair>
      <Pair>
        <key>highlight</key>
        <styleUrl>#poly-097138-1200-77-nodesc-highlight</styleUrl>
      </Pair>
    </StyleMap>
    <Style id="poly-673AB7-1200-77-nodesc-normal">
      <LineStyle>
        <color>ffb73a67</color>
        <width>1.2</width>
      </LineStyle>
      <PolyStyle>
        <color>4db73a67</color>
        <fill>1</fill>
        <outline>1</outline>
      </PolyStyle>
      <BalloonStyle>
        <text><![CDATA[<h3>$[name]</h3>]]></text>
      </BalloonStyle>
    </Style>
    <Style id="poly-673AB7-1200-77-nodesc-highlight">
      <LineStyle>
        <color>ffb73a67</color>
        <width>1.8</width>
      </LineStyle>
      <PolyStyle>
        <color>4db73a67</color>
        <fill>1</fill>
        <outline>1</outline>
      </PolyStyle>
      <BalloonStyle>
        <text><![CDATA[<h3>$[name]</h3>]]></text>
      </BalloonStyle>
    </Style>
    <StyleMap id="poly-673AB7-1200-77-nodesc">
      <Pair>
        <key>normal</key>
        <styleUrl>#poly-673AB7-1200-77-nodesc-normal</styleUrl>
      </Pair>
      <Pair>
        <key>highlight</key>
        <styleUrl>#poly-673AB7-1200-77-nodesc-highlight</styleUrl>
      </Pair>
    </StyleMap>
    <Style id="poly-A52714-1200-77-nodesc-normal">
      <LineStyle>
        <color>ff1427a5</color>
        <width>1.2</width>
      </LineStyle>
      <PolyStyle>
        <color>4d1427a5</color>
        <fill>1</fill>
        <outline>1</outline>
      </PolyStyle>
      <BalloonStyle>
        <text><![CDATA[<h3>$[name]</h3>]]></text>
      </BalloonStyle>
    </Style>
    <Style id="poly-A52714-1200-77-nodesc-highlight">
      <LineStyle>
        <color>ff1427a5</color>
        <width>1.8</width>
      </LineStyle>
      <PolyStyle>
        <color>4d1427a5</color>
        <fill>1</fill>
        <outline>1</outline>
      </PolyStyle>
      <BalloonStyle>
        <text><![CDATA[<h3>$[name]</h3>]]></text>
      </BalloonStyle>
    </Style>
    <StyleMap id="poly-A52714-1200-77-nodesc">
      <Pair>
        <key>normal</key>
        <styleUrl>#poly-A52714-1200-77-nodesc-normal</styleUrl>
      </Pair>
      <Pair>
        <key>highlight</key>
        <styleUrl>#poly-A52714-1200-77-nodesc-highlight</styleUrl>
      </Pair>
    </StyleMap>
    <Style id="poly-F48FB1-1200-77-nodesc-normal">
      <LineStyle>
        <color>ffb18ff4</color>
        <width>1.2</width>
      </LineStyle>
      <PolyStyle>
        <color>4db18ff4</color>
        <fill>1</fill>
        <outline>1</outline>
      </PolyStyle>
      <BalloonStyle>
        <text><![CDATA[<h3>$[name]</h3>]]></text>
      </BalloonStyle>
    </Style>
    <Style id="poly-F48FB1-1200-77-nodesc-highlight">
      <LineStyle>
        <color>ffb18ff4</color>
        <width>1.8</width>
      </LineStyle>
      <PolyStyle>
        <color>4db18ff4</color>
        <fill>1</fill>
        <outline>1</outline>
      </PolyStyle>
      <BalloonStyle>
        <text><![CDATA[<h3>$[name]</h3>]]></text>
      </BalloonStyle>
    </Style>
    <StyleMap id="poly-F48FB1-1200-77-nodesc">
      <Pair>
        <key>normal</key>
        <styleUrl>#poly-F48FB1-1200-77-nodesc-normal</styleUrl>
      </Pair>
      <Pair>
        <key>highlight</key>
        <styleUrl>#poly-F48FB1-1200-77-nodesc-highlight</styleUrl>
      </Pair>
    </StyleMap>
    <Style id="poly-F9A825-1200-77-nodesc-normal">
      <LineStyle>
        <color>ff25a8f9</color>
        <width>1.2</width>
      </LineStyle>
      <PolyStyle>
        <color>4d25a8f9</color>
        <fill>1</fill>
        <outline>1</outline>
      </PolyStyle>
      <BalloonStyle>
        <text><![CDATA[<h3>$[name]</h3>]]></text>
      </BalloonStyle>
    </Style>
    <Style id="poly-F9A825-1200-77-nodesc-highlight">
      <LineStyle>
        <color>ff25a8f9</color>
        <width>1.8</width>
      </LineStyle>
      <PolyStyle>
        <color>4d25a8f9</color>
        <fill>1</fill>
        <outline>1</outline>
      </PolyStyle>
      <BalloonStyle>
        <text><![CDATA[<h3>$[name]</h3>]]></text>
      </BalloonStyle>
    </Style>
    <StyleMap id="poly-F9A825-1200-77-nodesc">
      <Pair>
        <key>normal</key>
        <styleUrl>#poly-F9A825-1200-77-nodesc-normal</styleUrl>
      </Pair>
      <Pair>
        <key>highlight</key>
        <styleUrl>#poly-F9A825-1200-77-nodesc-highlight</styleUrl>
      </Pair>
    </StyleMap>
    <Style id="poly-FFD600-1200-77-nodesc-normal">
      <LineStyle>
        <color>ff00d6ff</color>
        <width>1.2</width>
      </LineStyle>
      <PolyStyle>
        <color>4d00d6ff</color>
        <fill>1</fill>
        <outline>1</outline>
      </PolyStyle>
      <BalloonStyle>
        <text><![CDATA[<h3>$[name]</h3>]]></text>
      </BalloonStyle>
    </Style>
    <Style id="poly-FFD600-1200-77-nodesc-highlight">
      <LineStyle>
        <color>ff00d6ff</color>
        <width>1.8</width>
      </LineStyle>
      <PolyStyle>
        <color>4d00d6ff</color>
        <fill>1</fill>
        <outline>1</outline>
      </PolyStyle>
      <BalloonStyle>
        <text><![CDATA[<h3>$[name]</h3>]]></text>
      </BalloonStyle>
    </Style>
    <StyleMap id="poly-FFD600-1200-77-nodesc">
      <Pair>
        <key>normal</key>
        <styleUrl>#poly-FFD600-1200-77-nodesc-normal</styleUrl>
      </Pair>
      <Pair>
        <key>highlight</key>
        <styleUrl>#poly-FFD600-1200-77-nodesc-highlight</styleUrl>
      </Pair>
    </StyleMap>
    <Folder>
      <name>Violet</name>
      <Placemark>
        <name>40</name>
        <styleUrl>#poly-673AB7-1200-77-nodesc</styleUrl>
        <Polygon>
          <outerBoundaryIs>
            <LinearRing>
              <tessellate>1</tessellate>
              <coordinates>
                4.8676967,45.7580384,0
                4.8673856,45.7567658,0
                4.8683404,45.756661,0
                4.8685443,45.7579485,0
                4.8676967,45.7580384,0
              </coordinates>
            </LinearRing>
          </outerBoundaryIs>
        </Polygon>
      </Placemark>
      <Placemark>
        <name>55</name>
        <styleUrl>#poly-673AB7-1200-77-nodesc</styleUrl>
        <Polygon>
          <outerBoundaryIs>
            <LinearRing>
              <tessellate>1</tessellate>
              <coordinates>
                4.8657327,45.7549497,0
                4.8638229,45.7544781,0
                4.8638712,45.7542498,0
                4.866371,45.7545492,0
                4.8657327,45.7549497,0
              </coordinates>
            </LinearRing>
          </outerBoundaryIs>
        </Polygon>
      </Placemark>
      <Placemark>
        <name>22</name>
        <styleUrl>#poly-673AB7-1200-77-nodesc</styleUrl>
        <Polygon>
          <outerBoundaryIs>
            <LinearRing>
              <tessellate>1</tessellate>
              <coordinates>
                4.8698262,45.7614567,0
                4.8683778,45.7612771,0
                4.8679594,45.7594208,0
                4.8692576,45.7595106,0
                4.8696546,45.7596678,0
                4.869558,45.7598848,0
                4.8698262,45.7614567,0
              </coordinates>
            </LinearRing>
          </outerBoundaryIs>
        </Polygon>
      </Placemark>
      <Placemark>
        <name>67</name>
        <styleUrl>#poly-673AB7-1200-77-nodesc</styleUrl>
        <Polygon>
          <outerBoundaryIs>
            <LinearRing>
              <tessellate>1</tessellate>
              <coordinates>
                4.8674176,45.7501009,0
                4.8673479,45.7498576,0
                4.8674981,45.7495469,0
                4.8672567,45.7491538,0
                4.868115,45.7489292,0
                4.8683295,45.7494121,0
                4.8683993,45.7496255,0
                4.8684315,45.7498538,0
                4.8674176,45.7501009,0
              </coordinates>
            </LinearRing>
          </outerBoundaryIs>
        </Polygon>
      </Placemark>
      <Placemark>
        <name>73</name>
        <styleUrl>#poly-673AB7-1200-77-nodesc</styleUrl>
        <Polygon>
          <outerBoundaryIs>
            <LinearRing>
              <tessellate>1</tessellate>
              <coordinates>
                4.8656566,45.7484077,0
                4.8653026,45.7476665,0
                4.8671372,45.7470413,0
                4.8675878,45.7479135,0
                4.8656566,45.7484077,0
              </coordinates>
            </LinearRing>
          </outerBoundaryIs>
        </Polygon>
      </Placemark>
    </Folder>
    <Folder>
      <name>Orange</name>
      <Placemark>
        <name>42</name>
        <styleUrl>#poly-F9A825-1200-77-nodesc</styleUrl>
        <Polygon>
          <outerBoundaryIs>
            <LinearRing>
              <tessellate>1</tessellate>
              <coordinates>
                4.8660482,45.758802,0
                4.865957,45.7582892,0
                4.8675449,45.7581358,0
                4.86762,45.7586597,0
                4.8660482,45.758802,0
              </coordinates>
            </LinearRing>
          </outerBoundaryIs>
        </Polygon>
      </Placemark>
      <Placemark>
        <name>16</name>
        <styleUrl>#poly-F9A825-1200-77-nodesc</styleUrl>
        <Polygon>
          <outerBoundaryIs>
            <LinearRing>
              <tessellate>1</tessellate>
              <coordinates>
                4.8628875,45.7613124,0
                4.8621258,45.7613124,0
                4.8619756,45.7591642,0
                4.8628875,45.7591567,0
                4.8628875,45.7613124,0
              </coordinates>
            </LinearRing>
          </outerBoundaryIs>
        </Polygon>
      </Placemark>
      <Placemark>
        <name>61</name>
        <styleUrl>#poly-F9A825-1200-77-nodesc</styleUrl>
        <Polygon>
          <outerBoundaryIs>
            <LinearRing>
              <tessellate>1</tessellate>
              <coordinates>
                4.8716852,45.7550621,0
                4.8719856,45.7538419,0
                4.8741099,45.7546878,0
                4.875215,45.7549424,0
                4.8760304,45.7553092,0
                4.8760626,45.7556236,0
                4.8716852,45.7550621,0
              </coordinates>
            </LinearRing>
          </outerBoundaryIs>
        </Polygon>
      </Placemark>
      <Placemark>
        <name>4</name>
        <styleUrl>#poly-F9A825-1200-77-nodesc</styleUrl>
        <Polygon>
          <outerBoundaryIs>
            <LinearRing>
              <tessellate>1</tessellate>
              <coordinates>
                4.8670827,45.7636431,0
                4.866954,45.7629769,0
                4.868574,45.7631715,0
                4.8687028,45.763658,0
                4.8670827,45.7636431,0
              </coordinates>
            </LinearRing>
          </outerBoundaryIs>
        </Polygon>
      </Placemark>
      <Placemark>
        <name>65</name>
        <styleUrl>#poly-F9A825-1200-77-nodesc</styleUrl>
        <Polygon>
          <outerBoundaryIs>
            <LinearRing>
              <tessellate>1</tessellate>
              <coordinates>
                4.8650657,45.7506669,0
                4.8648082,45.7501691,0
                4.8644702,45.7499782,0
                4.8646848,45.7497835,0
                4.865114,45.7497161,0
                4.866101,45.7494429,0
                4.8665355,45.75033,0
                4.8650657,45.7506669,0
              </coordinates>
            </LinearRing>
          </outerBoundaryIs>
        </Polygon>
      </Placemark>
    </Folder>
    <Folder>
      <name>Rouge (Yann)</name>
      <Placemark>
        <name>43</name>
        <styleUrl>#poly-A52714-1200-77-nodesc</styleUrl>
        <Polygon>
          <outerBoundaryIs>
            <LinearRing>
              <tessellate>1</tessellate>
              <coordinates>
                4.8660145,45.7592144,0
                4.8630104,45.7590347,0
                4.8629353,45.7585856,0
                4.8658535,45.7583086,0
                4.8660145,45.7592144,0
              </coordinates>
            </LinearRing>
          </outerBoundaryIs>
        </Polygon>
      </Placemark>
      <Placemark>
        <name>35</name>
        <styleUrl>#poly-A52714-1200-77-nodesc</styleUrl>
        <Polygon>
          <outerBoundaryIs>
            <LinearRing>
              <tessellate>1</tessellate>
              <coordinates>
                4.8678871,45.7590381,0
                4.8676725,45.7581174,0
                4.870065,45.7577955,0
                4.8703225,45.7587087,0
                4.8678871,45.7590381,0
              </coordinates>
            </LinearRing>
          </outerBoundaryIs>
        </Polygon>
      </Placemark>
      <Placemark>
        <name>74</name>
        <styleUrl>#poly-A52714-1200-77-nodesc</styleUrl>
        <Polygon>
          <outerBoundaryIs>
            <LinearRing>
              <tessellate>1</tessellate>
              <coordinates>
                4.8695286,45.7527348,0
                4.8687668,45.7525925,0
                4.8685952,45.7505787,0
                4.8702367,45.7500547,0
                4.8710735,45.7519038,0
                4.8695286,45.7527348,0
              </coordinates>
            </LinearRing>
          </outerBoundaryIs>
        </Polygon>
      </Placemark>
      <Placemark>
        <name>1</name>
        <styleUrl>#poly-A52714-1200-77-nodesc</styleUrl>
        <Polygon>
          <outerBoundaryIs>
            <LinearRing>
              <tessellate>1</tessellate>
              <coordinates>
                4.8620319,45.7636023,0
                4.8619837,45.7629437,0
                4.8628688,45.7629587,0
                4.8628527,45.7636323,0
                4.8620319,45.7636023,0
              </coordinates>
            </LinearRing>
          </outerBoundaryIs>
        </Polygon>
      </Placemark>
    </Folder>
    <Folder>
      <name>Bleu</name>
      <Placemark>
        <name>44</name>
        <styleUrl>#poly-01579B-1200-77-nodesc</styleUrl>
        <Polygon>
          <outerBoundaryIs>
            <LinearRing>
              <tessellate>1</tessellate>
              <coordinates>
                4.8618871,45.7589729,0
                4.8617476,45.7572213,0
                4.8624665,45.757139,0
                4.8628956,45.7590028,0
                4.8618871,45.7589729,0
              </coordinates>
            </LinearRing>
          </outerBoundaryIs>
        </Polygon>
      </Placemark>
      <Placemark>
        <name>57</name>
        <styleUrl>#poly-01579B-1200-77-nodesc</styleUrl>
        <Polygon>
          <outerBoundaryIs>
            <LinearRing>
              <tessellate>1</tessellate>
              <coordinates>
                4.8638505,45.7541297,0
                4.8632711,45.7540848,0
                4.8637217,45.7530218,0
                4.8658246,45.7525876,0
                4.8660821,45.7526325,0
                4.8682708,45.7526101,0
                4.8694295,45.7527897,0
                4.867273,45.7540174,0
                4.8663718,45.7532539,0
                4.8658031,45.7533212,0
                4.864741,45.7535982,0
                4.8638505,45.7541297,0
              </coordinates>
            </LinearRing>
          </outerBoundaryIs>
        </Polygon>
      </Placemark>
      <Placemark>
        <name>18</name>
        <styleUrl>#poly-01579B-1200-77-nodesc</styleUrl>
        <Polygon>
          <outerBoundaryIs>
            <LinearRing>
              <tessellate>1</tessellate>
              <coordinates>
                4.8654759,45.7600841,0
                4.8654866,45.7593131,0
                4.8660123,45.7593468,0
                4.8661679,45.7600167,0
                4.8654759,45.7600841,0
              </coordinates>
            </LinearRing>
          </outerBoundaryIs>
        </Polygon>
      </Placemark>
      <Placemark>
        <name>64</name>
        <styleUrl>#poly-01579B-1200-77-nodesc</styleUrl>
        <Polygon>
          <outerBoundaryIs>
            <LinearRing>
              <tessellate>1</tessellate>
              <coordinates>
                4.8654115,45.7515279,0
                4.8650843,45.7507418,0
                4.8684424,45.7499146,0
                4.8685604,45.7511798,0
                4.8654115,45.7515279,0
              </coordinates>
            </LinearRing>
          </outerBoundaryIs>
        </Polygon>
      </Placemark>
      <Placemark>
        <name>9</name>
        <styleUrl>#poly-01579B-1401-77-nodesc</styleUrl>
        <Polygon>
          <outerBoundaryIs>
            <LinearRing>
              <tessellate>1</tessellate>
              <coordinates>
                4.8647532,45.7629106,0
                4.8646834,45.7613799,0
                4.8664752,45.7613462,0
                4.8668078,45.7629255,0
                4.8647532,45.7629106,0
              </coordinates>
            </LinearRing>
          </outerBoundaryIs>
        </Polygon>
      </Placemark>
      <Placemark>
        <name>32</name>
        <styleUrl>#poly-01579B-1200-77-nodesc</styleUrl>
        <Polygon>
          <outerBoundaryIs>
            <LinearRing>
              <tessellate>1</tessellate>
              <coordinates>
                4.8749563,45.757948,0
                4.8746934,45.757147,0
                4.8763028,45.7569599,0
                4.8764315,45.7577159,0
                4.8749563,45.757948,0
              </coordinates>
            </LinearRing>
          </outerBoundaryIs>
        </Polygon>
      </Placemark>
      <Placemark>
        <name>75</name>
        <styleUrl>#poly-01579B-1200-77-nodesc</styleUrl>
        <Polygon>
          <outerBoundaryIs>
            <LinearRing>
              <tessellate>1</tessellate>
              <coordinates>
                4.8712602,45.7519144,0
                4.8720488,45.7511471,0
                4.8737922,45.7504509,0
                4.8738673,45.7506567,0
                4.8712602,45.7519144,0
              </coordinates>
            </LinearRing>
          </outerBoundaryIs>
        </Polygon>
      </Placemark>
    </Folder>
    <Folder>
      <name>Vert</name>
      <Placemark>
        <name>45</name>
        <styleUrl>#poly-097138-1200-77-nodesc</styleUrl>
        <Polygon>
          <outerBoundaryIs>
            <LinearRing>
              <tessellate>1</tessellate>
              <coordinates>
                4.8629084,45.7585377,0
                4.8625758,45.7571304,0
                4.8645982,45.7569845,0
                4.8648557,45.7583655,0
                4.8629084,45.7585377,0
              </coordinates>
            </LinearRing>
          </outerBoundaryIs>
        </Polygon>
      </Placemark>
      <Placemark>
        <name>52</name>
        <styleUrl>#poly-097138-1200-77-nodesc</styleUrl>
        <Polygon>
          <outerBoundaryIs>
            <LinearRing>
              <tessellate>1</tessellate>
              <coordinates>
                4.8711183,45.7562543,0
                4.8707053,45.7550828,0
                4.8726311,45.7553261,0
                4.8726633,45.7560822,0
                4.8711183,45.7562543,0
              </coordinates>
            </LinearRing>
          </outerBoundaryIs>
        </Polygon>
      </Placemark>
      <Placemark>
        <name>12</name>
        <styleUrl>#poly-097138-1200-77-nodesc</styleUrl>
        <Polygon>
          <outerBoundaryIs>
            <LinearRing>
              <tessellate>1</tessellate>
              <coordinates>
                4.862955,45.7629034,0
                4.8629711,45.7620913,0
                4.8637704,45.7620763,0
                4.863765,45.7629108,0
                4.862955,45.7629034,0
              </coordinates>
            </LinearRing>
          </outerBoundaryIs>
        </Polygon>
      </Placemark>
      <Placemark>
        <name>36</name>
        <styleUrl>#poly-097138-1200-77-nodesc</styleUrl>
        <Polygon>
          <outerBoundaryIs>
            <LinearRing>
              <tessellate>1</tessellate>
              <coordinates>
                4.8746919,45.7570637,0
                4.8743164,45.7560232,0
                4.8760973,45.7559483,0
                4.8762475,45.756884,0
                4.8746919,45.7570637,0
              </coordinates>
            </LinearRing>
          </outerBoundaryIs>
        </Polygon>
      </Placemark>
      <Placemark>
        <name>80</name>
        <styleUrl>#poly-097138-1200-77-nodesc</styleUrl>
        <Polygon>
          <outerBoundaryIs>
            <LinearRing>
              <tessellate>1</tessellate>
              <coordinates>
                4.8683651,45.7488078,0
                4.86829,45.7477971,0
                4.8718681,45.7469137,0
                4.8723455,45.7478121,0
                4.8683651,45.7488078,0
              </coordinates>
            </LinearRing>
          </outerBoundaryIs>
        </Polygon>
      </Placemark>
    </Folder>
    <Folder>
      <name>Jaune</name>
      <Placemark>
        <name>46</name>
        <styleUrl>#poly-FFD600-1200-77-nodesc</styleUrl>
        <Polygon>
          <outerBoundaryIs>
            <LinearRing>
              <tessellate>1</tessellate>
              <coordinates>
                4.8649269,45.7583636,0
                4.8646909,45.7569788,0
                4.8656404,45.7568965,0
                4.865855,45.7582401,0
                4.8649269,45.7583636,0
              </coordinates>
            </LinearRing>
          </outerBoundaryIs>
        </Polygon>
      </Placemark>
      <Placemark>
        <name>17
</name>
        <styleUrl>#poly-FFD600-1200-77-nodesc</styleUrl>
        <Polygon>
          <outerBoundaryIs>
            <LinearRing>
              <tessellate>1</tessellate>
              <coordinates>
                4.8655117,45.7612866,0
                4.8655224,45.7601563,0
                4.8661017,45.7601039,0
                4.8664451,45.7612791,0
                4.8655117,45.7612866,0
              </coordinates>
            </LinearRing>
          </outerBoundaryIs>
        </Polygon>
      </Placemark>
      <Placemark>
        <name>60</name>
        <styleUrl>#poly-FFD600-1200-77-nodesc</styleUrl>
        <Polygon>
          <outerBoundaryIs>
            <LinearRing>
              <tessellate>1</tessellate>
              <coordinates>
                4.8687609,45.754,0
                4.8703917,45.753184,0
                4.8718616,45.7538129,0
                4.8717328,45.7543968,0
                4.8687609,45.754,0
              </coordinates>
            </LinearRing>
          </outerBoundaryIs>
        </Polygon>
      </Placemark>
      <Placemark>
        <name>2</name>
        <styleUrl>#poly-FFD600-1200-77-nodesc</styleUrl>
        <Polygon>
          <outerBoundaryIs>
            <LinearRing>
              <tessellate>1</tessellate>
              <coordinates>
                4.8629343,45.7636266,0
                4.862953,45.7629605,0
                4.8637684,45.7629698,0
                4.8637389,45.7636379,0
                4.8629343,45.7636266,0
              </coordinates>
            </LinearRing>
          </outerBoundaryIs>
        </Polygon>
      </Placemark>
      <Placemark>
        <name>76</name>
        <styleUrl>#poly-FFD600-1200-77-nodesc</styleUrl>
        <Polygon>
          <outerBoundaryIs>
            <LinearRing>
              <tessellate>1</tessellate>
              <coordinates>
                4.8711841,45.7518747,0
                4.8710715,45.7517998,0
                4.8705941,45.7507443,0
                4.8702668,45.7500293,0
                4.8730831,45.7490897,0
                4.8737591,45.7503961,0
                4.8720424,45.7510737,0
                4.8711841,45.7518747,0
              </coordinates>
            </LinearRing>
          </outerBoundaryIs>
        </Polygon>
      </Placemark>
    </Folder>
    <Folder>
      <name>Rose</name>
      <Placemark>
        <name>47</name>
        <styleUrl>#poly-F48FB1-1200-77-nodesc</styleUrl>
        <Polygon>
          <outerBoundaryIs>
            <LinearRing>
              <tessellate>1</tessellate>
              <coordinates>
                4.8659379,45.7582352,0
                4.8657287,45.7569027,0
                4.867279,45.7567643,0
                4.8675151,45.7580817,0
                4.8659379,45.7582352,0
              </coordinates>
            </LinearRing>
          </outerBoundaryIs>
        </Polygon>
      </Placemark>
      <Placemark>
        <name>20</name>
        <styleUrl>#poly-F48FB1-1200-77-nodesc</styleUrl>
        <Polygon>
          <outerBoundaryIs>
            <LinearRing>
              <tessellate>1</tessellate>
              <coordinates>
                4.8663796,45.7605606,0
                4.8662776,45.7600666,0
                4.8679084,45.7599131,0
                4.8680157,45.7603772,0
                4.8663796,45.7605606,0
              </coordinates>
            </LinearRing>
          </outerBoundaryIs>
        </Polygon>
      </Placemark>
      <Placemark>
        <name>37</name>
        <styleUrl>#poly-F48FB1-1200-77-nodesc</styleUrl>
        <Polygon>
          <outerBoundaryIs>
            <LinearRing>
              <tessellate>1</tessellate>
              <coordinates>
                4.8732066,45.7572521,0
                4.8727613,45.7561629,0
                4.874199,45.7560507,0
                4.8746067,45.7570949,0
                4.8732066,45.7572521,0
              </coordinates>
            </LinearRing>
          </outerBoundaryIs>
        </Polygon>
      </Placemark>
      <Placemark>
        <name>14</name>
        <styleUrl>#poly-F48FB1-1200-77-nodesc</styleUrl>
        <Polygon>
          <outerBoundaryIs>
            <LinearRing>
              <tessellate>1</tessellate>
              <coordinates>
                4.8619874,45.7628623,0
                4.8620196,45.7620914,0
                4.8628779,45.7620839,0
                4.8628672,45.7628773,0
                4.8619874,45.7628623,0
              </coordinates>
            </LinearRing>
          </outerBoundaryIs>
        </Polygon>
      </Placemark>
      <Placemark>
        <name>3B</name>
        <styleUrl>#poly-F48FB1-1200-77-nodesc</styleUrl>
        <Polygon>
          <outerBoundaryIs>
            <LinearRing>
              <tessellate>1</tessellate>
              <coordinates>
                4.8638457,45.7629731,0
                4.8668283,45.7629806,0
                4.8669839,45.763673,0
                4.8638457,45.7629731,0
              </coordinates>
            </LinearRing>
          </outerBoundaryIs>
        </Polygon>
      </Placemark>
      <Placemark>
        <name>77</name>
        <styleUrl>#poly-F48FB1-1200-77-nodesc</styleUrl>
        <Polygon>
          <outerBoundaryIs>
            <LinearRing>
              <tessellate>1</tessellate>
              <coordinates>
                4.8685471,45.7505071,0
                4.8685095,45.7496274,0
                4.8691157,45.7494964,0
                4.8728172,45.7485531,0
                4.8730586,45.7490247,0
                4.8710362,45.7497135,0
                4.8695395,45.7502114,0
                4.8685471,45.7505071,0
              </coordinates>
            </LinearRing>
          </outerBoundaryIs>
        </Polygon>
      </Placemark>
    </Folder>
    <Folder>
      <name>Gris</name>
      <Placemark>
        <name>48</name>
        <styleUrl>#poly-000000-1200-77-nodesc</styleUrl>
        <Polygon>
          <outerBoundaryIs>
            <LinearRing>
              <tessellate>1</tessellate>
              <coordinates>
                4.8625547,45.7570457,0
                4.8626406,45.7569559,0
                4.8640729,45.7561325,0
                4.8645342,45.756896,0
                4.8625547,45.7570457,0
              </coordinates>
            </LinearRing>
          </outerBoundaryIs>
        </Polygon>
      </Placemark>
      <Placemark>
        <name>41</name>
        <styleUrl>#poly-000000-1200-77-nodesc</styleUrl>
        <Polygon>
          <outerBoundaryIs>
            <LinearRing>
              <tessellate>1</tessellate>
              <coordinates>
                4.8660762,45.7592635,0
                4.8660493,45.7588555,0
                4.8676426,45.7587002,0
                4.8677928,45.7593103,0
                4.8660762,45.7592635,0
              </coordinates>
            </LinearRing>
          </outerBoundaryIs>
        </Polygon>
      </Placemark>
      <Placemark>
        <name>8</name>
        <styleUrl>#poly-000000-1200-77-nodesc</styleUrl>
        <Polygon>
          <outerBoundaryIs>
            <LinearRing>
              <tessellate>1</tessellate>
              <coordinates>
                4.8668996,45.7629278,0
                4.8665348,45.7613336,0
                4.86823,45.7613336,0
                4.868584,45.7630962,0
                4.8668996,45.7629278,0
              </coordinates>
            </LinearRing>
          </outerBoundaryIs>
        </Polygon>
      </Placemark>
      <Placemark>
        <name>34</name>
        <styleUrl>#poly-000000-1200-77-nodesc</styleUrl>
        <Polygon>
          <outerBoundaryIs>
            <LinearRing>
              <tessellate>1</tessellate>
              <coordinates>
                4.8704045,45.7586964,0
                4.8701202,45.7577795,0
                4.8731403,45.7573116,0
                4.8734676,45.7582211,0
                4.8708819,45.7585917,0
                4.8704045,45.7586964,0
              </coordinates>
            </LinearRing>
          </outerBoundaryIs>
        </Polygon>
      </Placemark>
      <Placemark>
        <name>78</name>
        <styleUrl>#poly-000000-1200-77-nodesc</styleUrl>
        <Polygon>
          <outerBoundaryIs>
            <LinearRing>
              <tessellate>1</tessellate>
              <coordinates>
                4.8684978,45.7495669,0
                4.8684495,45.7492337,0
                4.8683691,45.7488744,0
                4.8724139,45.7478525,0
                4.872784,45.7485113,0
                4.8684978,45.7495669,0
              </coordinates>
            </LinearRing>
          </outerBoundaryIs>
        </Polygon>
      </Placemark>
    </Folder>
  </Document>
</kml>
